,SystemName,SchoolName,Cluster,Street,City,Zip_Code,SingleScore,Latitude,Longitude
0,Bartow County,White Elementary School,E,505 Colonel Way,White,30184,88.9,34.27773565,-84.7631406766655
1,Carroll County,Whitesburg Elementary School,E,868 Main Street,Whitesburg,30185,92.2,33.498383213308784,-84.9173464876649
2,Cherokee County,Creekview High School,H,1550 Owens Store Road,Canton,30115,87.8,34.23540375,-84.33652400363108
3,Cherokee County,Avery Elementary School,E,6391 East Cherokee Drive,Canton,30115,85.2,34.2152701,-84.39477711485176
4,Cherokee County,Bascomb Elementary School,E,1335 Wyngate Parkway,Woodstock,30189,90.8,34.14233106122449,-84.58588032653061
5,Cherokee County,R.M. Moore Elementary School STEM Academy,E,1375 Puckett Road,Waleska,30183,89.2,34.33753247540895,-84.52993394693868
6,Cobb County,Clarkdale Elementary School,E,4725 Ewing Road,Austell,30106,76.4,33.84215245,-84.63268820231416
7,Cobb County,Walton High School,H,1590 Bill Murdock Road,Marietta,30062,96.3,33.989809050000005,-84.44004004531917
8,Cobb County,Garrison Mill Elementary School,E,4111 Wesley Chapel Road,Marietta,30062,91.9,34.05001095,-84.43499375923182
9,Cobb County,Harrison High School,H,4500 Due West Road,Kennesaw,30152,94.0,33.96717165,-84.68323968812057
10,Cobb County,Kemp Elementary School,E,865 Corner Road,Powder Springs,30127,93.5,33.9297296,-84.7021067970174
12,Cobb County,Dodgen Middle School,M,1725 Bill Murdock Road,Marietta,30062,91.8,33.99156175,-84.4450728597395
13,Cobb County,Mount Bethel Elementary School,E,1210 Johnson Ferry Road,Marietta,30068,95.6,33.9817499,-84.426708
14,Cobb County,Addison Elementary School,E,3055 Ebenezer Road,Marietta,30066,83.2,34.024076061224484,-84.48961952040816
15,Cobb County,Sprayberry High School,H,2525 Sandy Plains Road,Marietta,30066,83.9,34.0117433,-84.49817258357433
16,Cobb County,Murdock Elementary School,E,2320 Murdock Road,Marietta,30062,92.0,34.00671255,-84.46235727114095
17,Cobb County,Lassiter High School,H,2601 Shallowford Road,Marietta,30066,95.8,34.04382535,-84.47398560292345
18,Cobb County,Simpson Middle School,M,3340 Trickum Road,Marietta,30066,94.7,34.032607999999996,-84.47877637264426
19,Cobb County,Hightower Trail Middle School,M,3905 Post Oak Tritt Road,Marietta,30062,91.8,34.017613100000005,-84.43782727887056
20,Cobb County,Palmer Middle School,M,690 North Booth Road,Kennesaw,30144,83.6,42.886629,-77.1704825
21,Cobb County,Hillgrove High School,H,4165 Luther Ward Road,Powder Springs,30127,91.8,33.92598895,-84.66671301036868
22,Coweta County,Madras Middle School,M,240 Edgeworth Road,Newnan,30263,87.2,33.43870489195235,-84.75780276129827
23,DeKalb County,Vanderlyn Elementary School,E,1877 Vanderlyn Drive,Dunwoody,30338,95.0,33.946296700000005,-84.31188975781669
24,DeKalb County,Austin Elementary School,E,5435 Roberts Drive,Dunwoody,30338,92.7,33.958385,-84.33619214285714
25,DeKalb County,Dunwoody Elementary School,E,1923 Womack Road Drive,Dunwoody,30338,92.2,33.94347352173913,-84.30825226086957
26,DeKalb County,Kittredge Magnet School,EM,1663 East Nancy Creek Drive,Atlanta,30319,98.1,33.916124142881685,-84.31869243748814
27,DeKalb County,Dekalb Early College Academy,H,1701 Mountain Industrial Boulevard,Clarkston,30083,96.6,33.83162188625984,-84.19788768402377
28,DeKalb County,DeKalb School of the Arts,MH,1192 Clarendon Avenue,Avondale Estates,30002,90.5,33.75739755935898,-84.26957502159583
29,Douglas County,Holly Springs Elementary School,E,4909 West Chapel Hill Road,Douglasville,30135,94.6,33.671053412659454,-84.72079550429343
31,Fayette County,McIntosh High School,H,201 Walt Banks Road,Peachtree City,30269,97.0,33.417682,-84.564638
32,Fayette County,Braelinn Elementary School,E,975 Robinson Road,Peachtree City,30269,93.7,33.39524799033402,-84.5504955029238
33,Fayette County,Sandy Creek High School,H,360 Jenkins Road,Tyrone ,30290,83.6,33.495097,-84.573668
34,Fayette County,Kedron Elementary School,E,200 Kedron Drive,Peachtree City,30269,95.5,33.4302146,-84.5982778
35,Fayette County,Starr's Mill High School,H,193 Panther Path,Fayetteville ,30215,92.2,33.3436121,-84.521254
36,Fayette County,Spring Hill Elementary School,E,100 Bradford Square,Fayetteville ,30215,81.7,33.44476258019733,-84.46879070324407
37,Fayette County,Rising Starr Middle School,M,183 Panther Path,Fayetteville ,30215,94.2,33.3436121,-84.521254
38,Forsyth County,Settles Bridge Elementary School,E,600 James Burgess Road,Suwanee ,30024,98.5,34.12326135,-84.10628104817107
39,Forsyth County,Sharon Elementary School,E,3595 Old Atlanta Road,Suwanee ,30024,94.3,34.102939,-84.13679239457812
41,Forsyth County,Riverwatch Middle School,M,610 James Burgess Road,Suwanee ,30024,96.1,34.1245202,-84.11000929058761
42,Forsyth County,Shiloh Point Elementary School,E,8145 Majors Road,Cumming,30041,95.6,34.14241920626019,-84.17590719614772
43,Forsyth County,Johns Creek Elementary School,E,6205 Old Atlanta Road,Suwanee ,30024,96.9,34.0632059,-84.1275771320905
44,Forsyth County,Daves Creek Elementary School,E,3740 Melody Mizer Lane,Cumming,30041,98.7,34.1354733,-84.1428683
45,Forsyth County,Whitlow Elementary School,E,3655 Castleberry Road,Cumming,30040,96.7,34.189054630559355,-84.16039664915522
46,Forsyth County,Lakeside Middle School,M,2565 Echols Road,Cumming,30041,91.1,34.16498745530536,-84.10062564071356
47,Forsyth County,South Forsyth Middle School,M,4670 Windermere Parkway,Cumming,30041,94.1,34.115936250000004,-84.15296035354035
48,Fulton County,Summit Hill Elementary School,E,13855 Providence Road,Milton,30004,85.8,34.11828311607722,-84.32280609772751
49,Fulton County,Abbotts Hill Elementary School,E,5575 Abbotts Bridge Road,Johns Creek,30097,95.8,34.0561267,-84.1964794
50,Fulton County,Creek View Elementary School,E,3995 Webb Bridge Road,Alpharetta ,30005,90.0,34.07632733661634,-84.24402531941591
51,Fulton County,Hopewell Middle School,M,13060 Cogburn Road,Milton,30004,90.0,34.09879905859163,-84.28094439221238
52,Fulton County,Milton High School,H,13025 Birmingham Highway,Milton,30004,92.7,34.09911525,-84.3372868338009
53,Fulton County,Dolvin Elementary School,E,10495 Jones Bridge Road,Johns Creek,30022,94.4,34.0708818,-84.2043273
54,Fulton County,Barnwell Elementary School,E,9425 Barnwell Road,Johns Creek,30022,98.2,34.0084089,-84.2516923
55,Fulton County,Lake Windward Elementary School,E,11770 East Fox Court,Alpharetta,30005,95.7,34.06786254538064,-84.21059943740424
56,Fulton County,Crabapple Crossing Elementary School,E,12775 Birmingham Highway,Milton,30004,93.9,34.093212300000005,-84.3377702709048
57,Fulton County,Northview High School,H,10625 Parsons Road,Johns Creek,30097,92.5,34.03911975,-84.17762775214132
58,Fulton County,Alpharetta High School,H,3595 Webb Bridge Road,Alpharetta,30005,94.1,34.07826354553282,-84.25557612238448
59,Fulton County,Findley Oaks Elementary School,E,5880 Findley Chase Drive,Johns Creek,30097,98.4,34.06093355,-84.18647066994461
60,Fulton County,State Bridge Crossing Elementary School,E,5530 State Bridge Road,Johns Creek,30022,92.1,34.023346095796335,-84.1977909787889
61,Fulton County,Chattahoochee High School,H,5230 Taylor Road,Johns Creek,30022,95.9,34.048021201606076,-84.20914057398808
62,Fulton County,River Trail Middle School,M,10795 Rogers Circle,Johns Creek,30097,91.8,34.043115773251635,-84.12998118404913
63,Fulton County,Northwestern Middle School,M,12805 Birmingham Highway,Milton,30004,92.5,34.095919949999995,-84.3371639816806
64,Fulton County,Johns Creek High School,H,5575 State Bridge Road,Johns Creek,30022,94.2,34.0224378,-84.19291935685692
65,Gwinnett County,Benefield Elementary School,E,1221 Old Norcross Road,Lawrenceville,30046,86.3,33.9535502175432,-84.02852117021254
66,Gwinnett County,Brookwood High School,H,1255 Dogwood Road SW,Snellville,30078,91.6,33.8694779,-84.0163171
67,Gwinnett County,Berkeley Lake Elementary School,E,4300 South Berkeley Lake Road NW,Duluth,30096,90.1,33.979423,-84.18625
68,Gwinnett County,Walnut Grove Elementary School,E,75 Taylor Road,Suwanee,30024,94.3,34.01792807152955,-84.02096566503977
70,Gwinnett County,Annistown Elementary School,E,3150 Spain Road,Snellville,30039,83.0,33.802331,-84.070319
71,Gwinnett County,Fort Daniel Elementary School,E,1725 Auburn Road,Dacula,30019,91.8,34.040495032630254,-83.91871585083632
72,Gwinnett County,Sugar Hill Elementary School,E,939 Level Creek Road,Sugar Hill,30518,94.9,34.0997823,-84.040009
73,Gwinnett County,Hull Middle School,M,1950 Old Peachtree Road NW,Duluth,30097,94.8,34.01470769443499,-84.10404715118439
74,Gwinnett County,Berkmar Middle School,M,4355 Lawrenceville Highway,Lilburn,30047,77.3,33.90083098215844,-84.12808179277312
75,Gwinnett County,Ivy Creek Elementary School,E,3443 Ridge Road,Buford,30519,92.4,34.09621473271371,-83.93804598322544
76,Gwinnett County,Gwin Oaks Elementary School,E,400 Gwin Oaks Drive,Lawrenceville,30044,92.8,33.894928,-84.06851
77,Gwinnett County,Arcado Elementary School,E,5150 Arcado Road SW,Lilburn,30047,91.5,33.8926177,-84.1135313
78,Gwinnett County,Pharr Elementary School,E,1500 North Road SW,Snellville,30078,90.4,33.891443622087635,-84.00633711649672
79,Gwinnett County,Riverside Elementary School,E,5445 Settles Bridge Road,Suwanee,30024,98.5,34.09363915,-84.09692935594448
80,Gwinnett County,Glenn C. Jones Middle School,M,3575 Ridge Road,Buford,30519,93.2,34.10187336002338,-83.9385232564887
81,Gwinnett County,Puckett's Mill Elementary School,E,2442 South Puckett's Mill Road,Dacula,30019,93.7,34.07272,-83.93303
82,Gwinnett County,Simpson Elementary School,E,4525 East Jones Bridge Road,Peachtree Corners,30092,97.2,33.997742034350274,-84.2295798255202
83,Gwinnett County,McConnell Middle School,M,550 Ozora Road,Loganville,30052,83.2,33.893294999999995,-83.91374118181818
84,Gwinnett County,Sycamore Elementary School,E,5695 Sycamore Road,Sugar Hill,30518,84.3,34.12612861059312,-84.04573869570429
85,Gwinnett County,Trip Elementary School,E,841 Cooper Road,Grayson,30017,96.6,33.871277631984846,-83.96001693074443
86,Buford City,Buford Middle School,M,2700 Robert Bell Parkway,Buford,30518,93.4,34.127557,-83.991115
87,Marietta City,Marietta Center for Advanced Academics,E,311 Aviation Road,Marietta,30060,95.9,33.9443711,-84.52553571468006
88,Coweta County,Northside Elementary School,E,720 Country Club Road,Newnan,30263,85.2,33.42421,-84.798874
90,DeKalb County,Ashford Park Elementary School,E,2968 Cravenridge Drive NE,Atlanta,30319,91.6,33.87500834566158,-84.32114617749079
91,DeKalb County,Laurel Ridge Elementary School,E,1215 Balsam Drive,Decatur,30033,83.6,33.8154910625,-84.27688
92,Fayette County,Peachtree City Elementary School,E,201 Wisdom Road,Peachtree City,30269,91.7,33.409093,-84.598816
93,Forsyth County,Big Creek Elementary School,E,1994 Peachtree Parkway,Cumming,30041,96.0,34.1586432,-84.1731772
94,Forsyth County,Midway Elementary School,E,4805 Atlanta Highway,Alpharetta,30004,87.5,34.1572052,-84.2436393
95,Gwinnett County,Roberts Elementary School,E,251 Buford Highway,Suwanee,30024,96.6,34.07246485,-84.05124209045074
96,Gwinnett County,Burnette Elementary School,E,3221 McGinnis Ferry Road,Suwanee,30024,92.4,34.031976263157894,-84.06770531578947
97,Gwinnett County,Dyer Elementary School,E,1707 Hurricane Shoals Road,Dacula,30019,92.1,33.99700208020034,-83.93574101717066
98,Gwinnett County,Starling Elementary School,E,1725 Grayson Highway,Grayson,30017,94.0,33.902589,-83.9656687
99,Gwinnett County,Northbrook Middle School,M,1221 Northbrook Parkway,Suwanee,30024,92.7,34.00615939001012,-84.06739268608825
100,Gwinnett County,White Oak Elementary School,E,6442 Suwanee Dam Road,Sugar Hill,30518,93.2,34.143423247866025,-84.06394197824294
102,Gwinnett County,Level Creek Elementary School,E,4488 Tench Road,Suwanee,30024,97.3,34.0711387,-84.0710562
103,Gwinnett County,North Gwinnett Middle School,M,170 Peachtree Industrial Boulevard,Sugar Hill,30518,92.3,34.07897625,-84.06130340959783
104,Gwinnett County,Twin Rivers Middle School,M,2300 Braselton Highway,Buford,30519,92.3,34.04503545523997,-83.94501063566655
105,Gwinnett County,Harmony Elementary School,E,3946 South Bogan Road,Buford,30519,91.7,34.0971824,-83.9796113
108,Gwinnett County,Camp Creek Elementary School,E,958 Cole Drive,Lilburn,30047,93.9,33.8701119,-84.1232268
109,Gwinnett County,North Gwinnett High School,H,20 Level Creek Road,Suwanee,30024,94.8,34.096376,-84.050925
110,Atlanta Public Schools,Brandon Elementary School,E,2741 Howell Mill Road NW,Atlanta,30327,96.5,33.838648,-84.422438
111,Atlanta Public Schools,Jackson Elementary School,E,1325 Mount Paran Road,Atlanta,30327,96.4,33.8635586,-84.4399898
113,Atlanta Public Schools,Mary Lin Elementary School,E,586 Candler Park Drive NE,Atlanta,30307,93.1,33.769528445247616,-84.33943998713966
114,Marietta City,West Side Elementary School,E,344 Polk Street NW,Marietta,30064,90.5,33.956485400000005,-84.56223294332759
115,Barrow County,Apalachee High School,H,940 Haymon Morris Rd,Winder,30680,77.0,33.950889256354536,-83.78854494113207
116,Barrow County,County Line Elementary School,E,334 Rockwell Church Rd NW,Winder,30680,76.4,34.0294676,-83.7329283
117,Barrow County,Haymon-Morris Middle School,M,1008 Haymon Morris Rd,Winder,30680,60.6,33.950554,-83.779087
118,Barrow County,Bear Creek Middle School,M,228 Jefferson St,Statham,30666,82.1,33.96936721010599,-83.59134429964669
120,Barrow County,Kennedy Elementary School,E,200 Matthews School Rd,Winder,30680,77.1,33.981683,-83.763614
121,Barrow County,Bramlett Elementary School,E,622 Freeman Brock Rd,Auburn,30011,79.1,34.03526366169005,-83.80881490930355
122,Barrow County,Westside Middle School,M,240 Matthews School Rd,Winder,30680,59.3,33.98170048276818,-83.76364847990392
123,Barrow County,Russell Middle School,M,84 W Midland Ave,Winder,30680,71.6,33.997433900000004,-83.72303025588826
124,Barrow County,Yargo Elementary School,E,1000 Haymon Morris Rd,Winder,30680,71.7,33.950554,-83.779087
125,Barrow County,Winder Elementary School,E,194 McNeal Rd,Winder,30680,73.2,34.00471300047373,-83.73351619269206
126,Bartow County,Woodland Middle School,M,1061 Euharlee Rd,Euharlee,30145,70.3,34.1738642,-84.9583479
129,Bartow County,Clear Creek Elementary School,E,50 Pleasant Valley Rd NW,Cartersville,30121,70.4,43.01479167292886,-77.02987210930783
130,Bartow County,Adairsville High School,H,519 Old Highway 41 NW,Adairsville,30103,72.5,34.34021894999999,-84.91739567721248
131,Bartow County,Pine Log Elementary School,E,1095 Cass Pine Log Rd,Rydal,30171,81.4,39.920841,-90.273525
132,Bartow County,Euharlee Elementary School,E,1058 Euharlee Rd,Euharlee,30145,66.2,34.1738642,-84.9583479
133,Bartow County,Cass High School,H,1000 Colonel Way,White,30184,75.5,34.28193315,-84.76229499463555
134,Bartow County,Adairsville Elementary School,E,122 King St,Adairsville,30103,74.2,34.37019338276108,-84.9393872728273
135,Bartow County,Mission Road Elementary School,E,1100 Mission Rd SW,Cartersville,30120,82.3,34.161527,-84.878599
136,Bartow County,South Central Middle School,M,224 Old Alabama Rd SE,Emerson,30137,64.7,34.1196215411204,-84.76417973679628
137,Bartow County,Cass Middle School,M,195 Fire Tower Rd NW,Cartersville,30120,66.6,34.240278685450455,-84.87413375334451
138,Bartow County,Allatoona Elementary School,E,4150 New Hope Church Rd SE,Acworth,30102,76.3,34.11674585646283,-84.67088496340807
139,Bartow County,Woodland High School,H,800 Old Alabama Rd SE,Cartersville,30120,75.2,34.1187728,-84.8312484
141,Bartow County,Kingston Elementary School,E,240 Hardin Bridge Rd,Kingston,30145,73.2,34.2014667,-84.932344
142,Bartow County,Adairsville Middle School,M,485 Old Highway 41 NW,Adairsville,30103,71.4,34.33493465,-84.91607779242376
143,Bartow County,Hamilton Crossing Elementary School,E,116 Hamilton Crossing Rd NW,Cartersville,30120,65.2,34.23437080338187,-84.86485918453027
144,Bartow County,Taylorsville Elementary School,E,1502 Old Alabama Rd,Taylorsville,30178,69.2,34.108652,-84.945245
145,Carroll County,Sharp Creek Elementary School,E,115 Old Muse Rd,Carrollton,30116,65.3,33.6491748218246,-85.04901504105925
146,Carroll County,Bowdon Middle School,M,129 N Jonesville Rd,Bowdon,30108,75.2,33.564148985994024,-85.23075871324696
147,Carroll County,Temple Middle School,M,275 Rainey Rd,Temple,30179,69.6,33.74844296779759,-85.02745630071159
148,Carroll County,Providence Elementary School,E,287 Rainey Rd,Temple,30179,83.6,33.74850975494293,-85.0272876756041
149,Carroll County,Mount Zion Elementary School,E,260 Eureka Church Rd,Carrollton,30117,64.2,33.60290853944516,-85.15875487235436
151,Carroll County,Central Middle School,M,155 Whooping Creek Rd,Carrollton,30116,83.8,33.518517,-85.044144
152,Carroll County,Temple High School,H,589 Sage St,Temple,30179,79.5,33.73359959198984,-85.02596771222437
153,Carroll County,Bay Springs Middle School,M,122 Bay Springs Rd,Villa Rica,30180,68.7,33.68923189795918,-84.93659608163266
154,Carroll County,Mt. Zion Middle School ,M,132 Mount Zion St,Carrollton,30117,75.8,33.6330461,-85.1856133
155,Carroll County,Mt. Zion High School,H,280 Eureka Church Rd,Carrollton,30117,79.8,33.60339568815402,-85.1591112386904
156,Carroll County,Villa Rica Middle School,M,614 Tumlin Lake Rd,Temple,30179,60.7,33.78044895,-84.96993361325508
157,Carroll County,Roopville Elementary School,E,60 Old Carrollton Rd,Roopville,30170,84.5,33.461695381358965,-85.12894408498377
158,Carroll County,Ithica Elementary School,E,75 Whitworth Rd,Villa Rica,30180,76.7,33.67905622448979,-84.94528102040816
159,Carroll County,Glanton-Hindsman Elementary School,E,118 Glanton St,Villa Rica,30180,75.6,33.7286726122449,-84.91358097959183
160,Carroll County,Villa Rica Elementary School,E,314 Peachtree St,Villa Rica,30180,78.6,33.73485614285715,-84.9260232857143
161,Cherokee County,Carmel Elementary School,E,2275 Bascomb Carmel Rd,Woodstock,30189,68.6,34.098322782983644,-84.5688120117132
162,Cherokee County,Woodstock Elementary School,E,230 Rope Mill Rd,Woodstock,30188,81.5,34.11184680941558,-84.52697108768633
163,Cherokee County,Hasty Elementary School Fine Arts Academy,E,205 Brown Industrial Pkwy,Canton,30114,73.3,34.23737619166059,-84.46946801654526
164,Cherokee County,Mill Creek Middle School,M,442 Arnold Mill Rd,Woodstock,30188,79.8,34.119001548890196,-84.48075707777276
165,Cherokee County,River Ridge High School,H,400 Arnold Mill Rd,Woodstock,30188,83.7,34.115698,-84.485765
166,Cherokee County,Indian Knoll Elementary School,E,3635 Univeter Rd,Canton,30115,75.6,34.1990835292809,-84.4571721004277
167,Cherokee County,Etowah High School,H,6565 Putnam Ford Dr,Woodstock,30189,85.9,34.1159955,-84.564328
168,Cherokee County,E. T. Booth Middle School,M,6550 Putnam Ford Dr,Woodstock,30189,75.2,34.11459065,-84.56145244999999
169,Cherokee County,Johnston Elementary School,E,2031 E Cherokee Dr,Woodstock,30188,76.4,34.130618180740406,-84.49317153884772
170,Cherokee County,Dean Rusk Middle School,M,4695 Hickory Rd,Canton,30115,81.6,34.17001796839259,-84.4198641068007
171,Cherokee County,Boston Elementary School,E,105 Othello Dr,Woodstock,30189,85.4,34.12842055973008,-84.59226433596255
172,Cherokee County,Mountain Road Elementary School,E,615 Mountain Rd,Woodstock,30188,90.3,34.14108855325106,-84.40253282807112
173,Cherokee County,Sequoyah High School,H,4485 Hickory Rd,Canton,30115,85.5,34.1708546,-84.42800774156956
174,Cherokee County,Sixes Elementary School,E,20 Ridge Rd,Canton,30114,79.0,34.17353040322999,-84.5556898288299
175,Cherokee County,Woodstock High School,H,2010 Towne Lake Hills S Dr,Woodstock,30189,78.5,34.10485186354572,-84.55108000563241
176,Cherokee County,Liberty Elementary School,E,10500 Bells Ferry Rd,Canton,30114,82.2,34.19350505450976,-84.5363306664511
177,Cherokee County,Freedom Middle School,M,10550 Bells Ferry Rd,Canton,30114,75.5,34.19376655299741,-84.53573848951903
179,Cherokee County,Ball Ground Elementary School STEM Academy,E,321 Valley Street,Ball Ground,30107,81.2,34.332926799999996,-84.38358521009272
180,Cherokee County,Teasley Middle School,M,151 Hickory Log Drive,Canton,30114,71.6,34.2613146,-84.4824746
181,Cherokee County,Woodstock Middle School,M,2000 Towne Lake Hills S Dr,Woodstock,30189,71.0,34.105028,-84.551176
182,Cherokee County,Creekland Middle School,M,1555 Owens Store Rd,Canton,30115,82.7,34.2390178,-84.34334
184,Cherokee County,Little River Elementary School,E,3170 Trickum Rd,Woodstock,30188,73.4,34.105759250000006,-84.47290239192839
185,Cherokee County,Clark Creek Elementary School STEM Academy,E,3219 Hunt Rd,Acworth,30102,78.3,34.09182305454546,-84.64581125454545
186,Cherokee County,Arnold Mill Elementary School,E,710 Arnold Mill Rd,Woodstock,30188,83.7,34.10983707672175,-84.43903139919274
187,Cherokee County,Canton Elementary School,E,712 Marietta Hwy,Canton,30114,58.0,34.2361068,-84.50119396074925
188,Cherokee County,Free Home Elementary School,E,12525 Cumming Hwy,Canton,30115,85.7,34.2372979,-84.4570897
189,Cherokee County,Knox Elementary School STEM Academy,E,151 River Bend Way,Canton,30114,69.7,34.2284031,-84.5332396
190,Clayton County,M. D. Roberts Middle School,M,1905 Walt Stephens Rd,Jonesboro,30236,73.3,33.5224143,-84.3304734
191,Clayton County,Callaway Elementary School,E,120 Oriole Dr,Jonesboro,30238,71.2,33.535405,-84.394841
192,Clayton County,Mundy's Mill High School,H,9652 Fayetteville Rd,Jonesboro,30238,65.2,33.49310876428984,-84.38394120185842
193,Clayton County,Marshall Elementary School,E,5885 Maddox Rd,Morrow,30260,73.5,33.5936346,-84.3183375
194,Clayton County,Jonesboro Middle School,M,1308 Arnold St,Jonesboro,30236,54.6,33.522906,-84.343711
195,Clayton County,Mount Zion Primary School,E,2920 Mount Zion Rd,Jonesboro,30236,46.6,33.55516542097411,-84.29464260053528
196,Clayton County,Elite Scholars Academy School,MH,5968 Maddox Rd,Morrow,30260,96.0,33.5920616,-84.3148828
197,Clayton County,Charles R. Drew High School,H,6237 Garden Walk Blvd,Riverdale,30274,59.9,33.58691385,-84.39631436103406
198,Clayton County,Eddie White Academy,EM,11808 Panhandle Rd,Hampton,30228,59.7,33.43223870135693,-84.36013600846306
199,Clayton County,Morrow Middle School,M,5934 Trammell Rd,Morrow,30260,66.5,33.59396157547805,-84.32119453246436
200,Clayton County,Kilpatrick Elementary School,E,7534 Tara Rd,Jonesboro,30236,61.2,33.54715660784659,-84.35850778103362
201,Clayton County,Mundy's Mill Middle School,M,1251 Mundys Mill Rd,Jonesboro,30238,61.1,33.48822067091775,-84.35128889282166
202,Clayton County,Brown Elementary School,E,9771 Poston Rd,Jonesboro,30238,53.5,33.493498555203416,-84.36362202395328
203,Clayton County,Adamson Middle School,M,3187 Rex Rd,Rex,30273,58.5,33.590595,-84.286886
204,Clayton County,Pointe South Elementary School,E,8482 Thomas Rd,Riverdale,30274,65.6,33.5206378,-84.4085733
205,Clayton County,Lovejoy High School,H,1587 McDonough Rd,Hampton,30228,65.2,33.44889128444444,-84.3389626
206,Clayton County,Lovejoy Middle School,M,1588 Lovejoy Rd,Hampton,30228,54.6,33.441591677842325,-84.3398761265086
207,Clayton County,River's Edge Elementary School,E,205 North Bridge Road,Fayetteville,30215,72.6,33.41925110089588,-84.38921098998503
208,Clayton County,Kendrick Middle School,M,7971 Kendrick Rd,Jonesboro,30238,73.1,33.53668894186046,-84.38576630232558
209,Clayton County,Hawthorne Elementary School,E,10750 English Rd,Hampton,30228,75.8,33.46260091401102,-84.36767506782039
211,Clayton County,Harper Elementary School,E,93 Valley Hill Rd SW,Riverdale,30274,65.4,33.558206,-84.38608
212,Clayton County,Kemp Primary School,E,1090 McDonough Rd,Hampton,30228,46.9,33.4525940230618,-84.35880842700479
213,Clayton County,Rex Mill Middle School,M,6380 Evans Dr,Rex,30273,64.1,33.5799353953839,-84.28187787181459
214,Clayton County,Martha Ellen Stilwell School of the Arts,H,2535 Mount Zion Pkwy,Jonesboro,30236,82.9,33.554315349999996,-84.310372635628
215,Clayton County,Oliver Elementary School,E,1725 Cheryl Leigh Dr,Riverdale,30296,66.8,33.57838365143799,-84.44400051866452
216,Clayton County,Pointe South Middle School,M,8495 Thomas Rd,Jonesboro,30238,54.6,33.497981,-84.403534
217,Clayton County,Mount Zion High School,H,2535 Mount Zion Pkwy,Jonesboro,30236,63.6,33.554315349999996,-84.310372635628
218,Clayton County,Lake Ridge Elementary School,E,7900 Lake Ridge Cir,Riverdale,30296,69.8,33.54018,-84.431233
219,Clayton County,James A. Jackson Elementary School,E,7711 Mount Zion Boulevard,Jonesboro,30236,60.7,33.54553700212297,-84.33735750868155
220,Clayton County,Unidos Dual Language Elementary School ,E,4475 Hendrix Dr,Forest Park,30297,84.2,33.63231565306123,-84.37049073469387
221,Clayton County,Riverdale High School,H,160 Roberts Dr,Riverdale,30274,71.1,33.56384097959184,-84.4060153877551
222,Clayton County,Perry Learning Center,MH,137 Spring St.,Jonesboro,30236,29.9,33.524536999999995,-84.35905393651124
223,Cobb County,Kennesaw Mountain High School,H,1898 Kennesaw Due West Rd NW,Kennesaw,30152,86.6,33.9993278,-84.62176573544617
224,Cobb County,Riverside Intermediate School,E,285 S Gordon Rd SW,Mableton,30126,62.6,33.7938029,-84.5586865
225,Cobb County,Kell High School,H,4770 Lee Waters Rd,Marietta,30066,80.4,34.064215149999995,-84.51313695652908
226,Cobb County,Bullard Elementary School,E,3656 Old Stilesboro Rd NW,Kennesaw,30152,87.5,34.002095249999996,-84.65691936269386
227,Cobb County,McCall Primary School,E,4496 Dixie Ave,Acworth,30101,71.6,34.06456405,-84.68062813512415
228,Cobb County,Pickett's Mill Elementary School,E,6400 Old Stilesboro Rd NW,Acworth,30101,90.1,34.0277383,-84.73562356202436
229,Cobb County,East Side Elementary School,E,3850 Roswell Rd,Marietta,30062,89.5,33.97618055,-84.43867017962866
230,Cobb County,Mableton Elementary School,E,5220 Church St SW,Mableton,30126,71.0,33.82532267346939,-84.58193
231,Cobb County,Birney Elementary School,E,775 Smyrna Powder Springs Rd SW,Marietta,30060,57.2,33.8808547,-84.5683297
232,Cobb County,Mabry Middle School,M,2700 Jims Rd,Marietta,30066,84.7,34.05972654999999,-84.47055298960697
233,Cobb County,Still Elementary School,E,870 Casteel Rd,Powder Springs,30127,71.2,33.93257335,-84.66394357689919
234,Cobb County,Tritt Elementary School,E,4435 Post Oak Tritt Rd,Marietta,30062,84.7,34.0176194,-84.42148601803618
235,Cobb County,Keheley Elementary School,E,1985 Kemp Rd,Marietta,30066,78.1,34.06643827452572,-84.4996013223929
236,Cobb County,Pope High School,H,3001 Hembree Rd NE,Marietta,30062,91.5,34.02384975,-84.45222669427525
237,Cobb County,Baker Elementary School,E,2361 Baker Rd NW,Acworth,30101,78.9,42.204901803017925,-77.85971053364102
238,Cobb County,Dowell Elementary School,E,2121 W Sandtown Rd SW,Marietta,30064,67.5,33.901993,-84.63498
239,Cobb County,Varner Elementary School,E,4761 Gaydon Rd,Powder Springs,30127,72.1,33.89537341381071,-84.69419726062416
240,Cobb County,Hayes Elementary School,E,1501 Kennesaw Due West Rd NW,Kennesaw,30152,69.4,33.990483600000005,-84.6318356697643
241,Cobb County,Vaughan Elementary School,E,5950 Nichols Rd,Powder Springs,30127,80.1,33.96048425,-84.72460672828004
242,Cobb County,Chalker Elementary School,E,325 N Booth Rd NW,Kennesaw,30144,80.3,34.0452901,-84.56149775332037
243,Cobb County,Nickajack Elementary School,E,4555 Mavell Rd SE,Smyrna,30082,74.8,33.8438899,-84.5167075
244,Cobb County,Lindley Middle School,M,50 Veterans Memorial Hwy SE,Mableton,30126,65.5,33.81208653586306,-84.55285998144363
245,Cobb County,Pitner Elementary School,E,4575 Wade Green Rd NW,Acworth,30102,79.1,34.06503535,-84.59197530777777
246,Cobb County,Austell Elementary School,E,5600 Mulberry St,Austell,30106,74.0,33.816275,-84.633151
247,Cobb County,Allatoona High School,H,3300 Dallas Acworth Hwy NW,Acworth,30101,89.7,34.037719,-84.736245
248,Cobb County,Smyrna Elementary School,E,1099 Fleming St SE,Smyrna,30080,70.8,33.890575749999996,-84.52186205424891
249,Cobb County,Kincaid Elementary School,E,1410 Kincaid Rd,Marietta,30066,70.8,34.0009339,-84.5104875
250,Cobb County,Pine Mountain Middle School,M,2720 Pine Mountain Cir NW,Kennesaw,30152,69.4,33.9881521,-84.63202759360624
251,Cobb County,Lewis Elementary School,E,4179 Jim Owens Rd NW,Kennesaw,30152,84.6,34.01545,-84.67305
252,Cobb County,Mountain View Elementary School,E,3448 Sandy Plains Rd,Marietta,30066,91.9,34.034115299999996,-84.46307636507437
253,Cobb County,Campbell Middle School,M,3295 Atlanta Rd SE,Smyrna,30080,71.1,33.87312871428571,-84.49919971428571
254,Cobb County,Shallowford Falls Elementary School,E,3529 Lassiter Rd,Marietta,30062,83.7,34.035287,-84.43802642058611
255,Cobb County,Ford Elementary School,E,1345 Mars Hill Rd NW,Acworth,30101,81.0,34.0410796,-84.692417
256,Cobb County,Frey Elementary School,E,2865 Mars Hill Rd NW,Acworth,30101,89.8,34.0410796,-84.692417
257,Cobb County,Cheatham Hill Elementary School,E,1350 John Ward Rd SW,Marietta,30064,81.3,33.9217633,-84.62102313011493
258,Cobb County,Durham Middle School,M,2891 Mars Hill Rd NW,Acworth,30101,84.5,34.0410796,-84.692417
259,Cobb County,Acworth Elementary School,E,4220 Cantrell Rd NW,Acworth,30101,77.4,34.05721725,-84.65253631403161
260,Cobb County,Kennesaw Charter Science and Math Academy ,E,3010 Cobb Pkwy NW,Kennesaw,30152,72.2,33.9875524,-84.5726371
261,Cobb County,Riverside Primary School,E,461 S Gordon Rd SW,Mableton,30126,66.9,33.7938029,-84.5586865
262,Cobb County,Rocky Mount Elementary School,E,2400 Rocky Mountain Rd,Marietta,30066,82.7,34.0490252,-84.4804762
263,Cobb County,Davis Elementary School,E,2433 Jamerson Rd,Marietta,30066,86.7,34.0691214,-84.5208857
264,Cobb County,Nicholson Elementary School,E,1599 Shallowford Rd,Marietta,30066,73.9,34.05197005,-84.50438355697057
265,Cobb County,Green Acres Elementary School,E,2000 Gober Ave SE,Smyrna,30080,52.4,33.90433268319021,-84.53495534510813
266,Cobb County,Sanders Elementary School,E,1550 Anderson Mill Rd,Austell,30106,69.8,33.847760693166464,-84.60056820674477
267,Cobb County,Blackwell Elementary School,E,3470 Canton Rd,Marietta,30066,76.7,34.03653025,-84.52608224008922
268,Cobb County,Hendricks Elementary School,E,5243 Meadows Rd,Powder Springs,30127,72.3,33.825221,-84.67679966666667
269,Cobb County,Kennesaw Elementary School,E,3155 Jiles Rd NW,Kennesaw,30144,57.1,34.031842499999996,-84.62889217970266
270,Cobb County,Barber Middle School,M,4222 Cantrell Rd NW,Acworth,30101,75.8,34.05960795,-84.652693499434
271,Cobb County,Tapp Middle School,M,3900 Macedonia Rd,Powder Springs,30127,75.5,33.87578095,-84.66831765271789
272,Cobb County,Sope Creek Elementary School,E,3320 Paper Mill Rd,Marietta,30067,92.2,33.9394884,-84.4407049
273,Cobb County,Powder Springs Elementary School,E,4570 Grady Grier Dr,Powder Springs,30127,61.9,33.85209085714286,-84.67915214285715
274,Cobb County,Timber Ridge Elementary School,E,5000 Timber Ridge Rd,Marietta,30068,93.3,33.9952253,-84.40564234911102
276,Cobb County,Lost Mountain Middle School,M,700 Old Mountain Rd NW,Kennesaw,30152,85.0,33.970573849999994,-84.69011859189862
277,Cobb County,Big Shanty Intermediate School,E,1575 Ben King Rd NW,Kennesaw,30144,73.0,34.0272886,-84.59671753435146
278,Cobb County,McClure Middle School,M,3660 Old Stilesboro Rd NW,Kennesaw,30152,90.7,34.004214000000005,-84.6568370440014
279,Cobb County,Bryant Elementary School,E,6800 Factory Shoals Rd SW,Mableton,30126,59.5,33.789184,-84.575859
280,Cobb County,Lovinggood Middle School,M,3825 Luther Ward Rd,Powder Springs,30127,79.6,33.9264438,-84.66345339238364
281,Cobb County,Devereux Ackerman Academy,EMH,1291 Stanley Rd NW,Kennesaw,30152,27.9,33.990533,-84.607414
282,Coweta County,Willis Road Elementary School,E,430 Willis Rd,Sharpsburg,30277,78.6,33.3620312,-84.6481668
283,Coweta County,Lee Middle School,M,370 Willis Rd,Sharpsburg,30277,83.6,33.3620014,-84.6513036
284,Coweta County,Newnan Crossing Elementary School,E,1267 Lower Fayetteville Rd,Newnan,30265,84.3,33.3762295,-84.74854822932649
285,Coweta County,Jefferson Parkway Elementary School,E,154 Millard Farmer Ind Blvd,Newnan,30263,72.3,33.399473238978864,-84.78595047165503
286,Coweta County,Northgate High School,H,3220 Fischer Rd,Newnan,30265,83.5,33.4682153,-84.6661808
287,Coweta County,Poplar Road Elementary School,E,2925 Poplar Rd,Sharpsburg,30277,59.2,33.3559089,-84.7340271
288,Coweta County,Welch Elementary School,E,240 Mary Freeman Rd,Newnan,30265,67.7,33.36180225862414,-84.71238433620694
289,Coweta County,Smokey Road Middle School,M,965 Smokey Rd,Newnan,30263,71.2,33.3766487,-84.7993366
290,Coweta County,Arnall Middle School,M,700 Lora Smith Rd,Newnan,30265,86.3,33.390146,-84.701519
291,DeKalb County,Narvie Harris Elementary School,E,3981 McGill Dr,Decatur,30034,57.4,33.66722387452974,-84.22745421683534
292,DeKalb County,Wynbrooke Elementary School,E,440 Wicksbury Way,Stone Mountain,30087,89.1,33.78765591836735,-84.11031181632653
293,DeKalb County,"Martin Luther King, Jr. High School ",H,3991 Snapfinger Rd,Lithonia,30038,58.0,33.66441159412026,-84.19568069162763
294,DeKalb County,Miller Grove High School,H,2645 Dekalb Medical Pkwy,Lithonia,30058,66.2,33.70944235,-84.15003760674585
295,DeKalb County,Flat Rock Elementary School,E,4603 Evans Mill Rd,Lithonia,30038,53.0,33.65853389656469,-84.15858772018376
296,DeKalb County,Princeton Elementary School,E,1321 S Deshon Rd,Lithonia,30058,73.0,33.760086821636335,-84.11494151087241
297,DeKalb County,DeKalb Preparatory Academy ,EM,1402 Austin Dr,Decatur,30032,59.4,33.75129901441428,-84.23381015508471
298,DeKalb County,Cedar Grove High School,H,2360 River Rd,Ellenwood,30294,67.0,33.6764201,-84.2943401160586
299,DeKalb County,Redan High School,H,5247 Redan Rd,Stone Mountain,30088,61.7,33.75992067012843,-84.17746378164559
300,DeKalb County,Eldridge Miller Elementary School,E,919 Martin Rd,Stone Mountain,30088,50.6,33.769802,-84.178785
301,DeKalb County,Panola Way Elementary School,E,2170 Panola Way Ct,Lithonia,30058,56.2,33.72974265702614,-84.16962764207368
302,DeKalb County,Peachtree Charter Middle School,M,4664 N Peachtree Rd,Atlanta,30338,75.1,33.9313043,-84.29660823815476
303,DeKalb County,Pine Ridge Elementary School,E,750 Pine Ridge Dr,Stone Mountain,30087,65.0,33.77319082769453,-84.12146608867135
304,DeKalb County,Browns Mill Elementary School,E,4863 Browns Mill Rd,Lithonia,30038,67.9,33.677693078861296,-84.18755639255969
305,DeKalb County,Chapel Hill Middle School,M,3535 Dogwood Farm Rd,Decatur,30034,53.1,33.679497876583476,-84.21520110653944
307,DeKalb County,Marbut Elementary School,E,5776 Marbut Rd,Lithonia,30058,70.9,33.727831615384616,-84.15078238461538
308,DeKalb County,Cedar Grove Middle School,M,2300 Wildcat Rd,Decatur,30034,68.3,33.6871761,-84.2951982
309,DeKalb County,Lithonia High School,H,2440 Phillips Rd,Lithonia,30058,65.8,33.71896288505346,-84.13049772707394
310,DeKalb County,Lithonia Middle School,M,2451 Randall Ave,Lithonia,30058,61.8,33.715012076923074,-84.10957153846155
311,DeKalb County,Redan Middle School,M,1775 Young Rd,Lithonia,30058,64.1,33.740267235821214,-84.15590185746991
312,DeKalb County,Museum School of Avondale Estates,EM,923 Forrest Boulevard,Decatur,30030,86.9,33.7689901,-84.2710755
313,DeKalb County,Rockbridge Elementary School,E,2084 Green Forrest Dr,Decatur,30032,75.0,33.7283404316596,-84.25930057580536
315,DeKalb County,Cedar Grove Elementary School,E,2330 River Rd,Ellenwood,30294,66.7,33.6759412,-84.2968674
316,DeKalb County,Stone Mountain High School,H,4555 Central Dr,Stone Mountain,30083,60.5,33.81163620067036,-84.20327865496091
317,DeKalb County,Salem Middle School,M,5333 Salem Rd,Lithonia,30038,58.1,33.67840866666667,-84.171396
318,DeKalb County,Shadow Rock Elementary School,E,1040 Kingway Drive,Lithonia,30058,62.5,33.7635306,-84.144674
319,DeKalb County,"Edward L. Bouie, Sr. Traditional Theme School",E,5100 Rock Springs Rd,Lithonia,30038,75.6,33.689196,-84.186133
320,DeKalb County,Columbia Middle School,M,3001 Columbia Dr,Decatur,30034,59.6,33.70095008072844,-84.25189624247862
321,DeKalb County,Oakview Elementary School,E,3574 Oakvale Rd,Decatur,30034,64.4,33.6794893877551,-84.26964053061225
322,DeKalb County,Wadsworth Magnet School,EM,3039 Santa Monica Drive,Decatur,30032,89.2,33.744309033898375,-84.26608659992439
323,DeKalb County,Leadership Preparatory Academy,EM,6400 Woodrow Rd,Lithonia,30038,84.1,33.6989132,-84.1365143
324,DeKalb County,The GLOBE Academy,EM,2225 Heritage Dr NE,Atlanta,30345,88.0,33.84904565,-84.29083555850087
325,DeKalb County,Tapestry Public Charter School,MH,3130 Raymond Dr,Doraville,30340,62.9,33.8861401,-84.27577371404756
326,DeKalb County,Stephenson Middle School,M,922 Stephenson Rd,Stone Mountain,30087,59.6,33.77304107669879,-84.11598669893748
327,DeKalb County,Robert Shaw Traditional Theme School,E,385 Glendale Rd,Scottdale,30079,87.9,33.78717693972205,-84.25431333224148
328,DeKalb County,Mary McLeod Bethune Middle School,M,5200 Covington Hwy,Decatur,30035,53.6,33.732620074897746,-84.20200409480643
329,DeKalb County,Chamblee Middle School,M,3601 Sexton Woods Dr,Chamblee,30341,77.4,33.89592,-84.311865
330,DeKalb County,Ronald E. McNair Discovery Learning Academy,E,2162 Second Ave,Decatur,30032,56.8,-33.8086197,151.0210892
331,DeKalb County,Bob Mathis Elementary School,E,3505 Boring Rd,Decatur,30034,72.6,33.690528927697954,-84.24138239497361
332,DeKalb County,Stephenson High School,H,701 Stephenson Rd,Stone Mountain,30087,61.9,33.775621,-84.124594
333,DeKalb County,DeKalb Alternative School,MH,5855 Memorial Dr,Stone Mountain,30083,36.5,33.8004703,-84.2018011
334,DeKalb County,Stone Mountain Middle School,M,4301 Sarr Parkway,Stone Mountain,30083,70.0,33.83409526630103,-84.21154589372382
335,DeKalb County,The Champion School,M,5265 Mimosa Dr,Stone Mountain,30083,78.1,33.80586048979592,-84.17325171428571
336,DeKalb County,Stone Mill Elementary School,E,4900 Sheila Ln,Stone Mountain,30083,71.0,33.815302581042936,-84.18858589706974
337,DeKalb County,Miller Grove Middle School,M,2215 Miller Rd,Decatur,30035,54.7,33.72487843000216,-84.18186444190536
338,DeKalb County,Tucker Middle School,M,2160 Idlewood Rd,Tucker,30084,69.6,33.8473944456077,-84.21336772142394
339,DeKalb County,Arabia Mountain High School,H,6610 Browns Mill Road,Lithonia,30038,84.8,33.64583409898941,-84.13364135341138
340,DeKalb County,Woodridge Elementary School,E,4120 Cedar Ridge Trl,Stone Mountain,30083,65.5,33.742164733709146,-84.19930188486744
341,DeKalb County,DeKalb Path Academy,EM,3007 Hermance Dr NE,Atlanta,30319,74.0,33.87650033350494,-84.3382273966146
342,DeKalb County,Henderson Middle School,M,2830 Henderson Mill Rd,Chamblee,30341,71.7,33.868108346938776,-84.25064732653061
343,DeKalb County,International Community School,E,2418 Wood Trail Ln,Decatur,30033,67.2,33.80189809292612,-84.2897276279033
344,DeKalb County,Elizabeth Andrews High School,H,1701 Mountain Industrial Blvd,Stone Mountain,30083,37.6,33.83162188625984,-84.19788768402377
345,DeKalb County,Druid Hills Middle School,M,3100 Mount Olive Dr,Decatur,30033,75.1,33.818591257416855,-84.2722374682194
346,Douglas County,Chapel Hill High School,H,4899 Chapel Hill Rd,Douglasville,30135,74.1,33.672361,-84.720336
347,Douglas County,Yeager Middle School,M,4000 Kings Hwy,Douglasville,30135,73.3,33.6956556,-84.77056841625406
348,Douglas County,North Douglas Elementary School,E,1630 Dorris Rd,Douglasville,30134,71.9,33.76192332033604,-84.78465919978926
349,Douglas County,Bill Arp Elementary School,E,6550 Alexander Pkwy,Douglasville,30135,72.7,33.68255792594728,-84.8015650281432
350,Douglas County,Factory Shoals Middle School,M,3301 Shoals School Rd,Douglasville,30135,69.6,34.8502847,-82.5247559
351,Douglas County,Mason Creek Elementary School,E,3400 Johnston Rd,Winston,30187,82.8,33.71370116590888,-84.83393777878509
352,Douglas County,Mason Creek Middle School,M,7777 Mason Creek Road,Winston,30187,78.2,33.7255218,-84.8272993
353,Douglas County,Lithia Springs Comprehensive High School,H,2520 E County Line Rd,Lithia Springs,30122,65.2,33.75427139496476,-84.66172506112382
354,Douglas County,Arbor Station Elementary School,E,9999 Parkway S,Douglasville,30135,74.8,33.713746,-84.753291
355,Douglas County,Dorsett Shoals Elementary School,E,5866 Dorsett Shoals Rd,Douglasville,30135,71.7,33.680764,-84.767131
356,Douglas County,Alexander High School,H,6500 Alexander Pkwy,Douglasville,30135,76.6,33.6839166,-84.7888035
357,Douglas County,Chestnut Log Middle School,M,2544 Pope Rd,Douglasville,30135,71.3,33.736584,-84.696957
358,Douglas County,Bright Star Elementary School,E,6300 John West Rd,Douglasville,30134,84.0,33.7271657,-84.7908297
359,Douglas County,New Manchester Elementary School,E,2242 Old Lower River Rd,Douglasville,30135,71.8,33.70818225114169,-84.64973604112731
360,Douglas County,Chapel Hill Elementary School,E,4433 Coursey Lake Rd,Douglasville,30135,73.1,33.685885047450334,-84.7370014695937
362,Douglas County,Factory Shoals Elementary School,E,2375 Mount Vernon Rd,Lithia Springs,30122,75.4,33.740075567516826,-84.64859839937814
363,Douglas County,Sweetwater Elementary School,E,2505 E County Line Rd,Lithia Springs,30122,71.3,33.753917990356115,-84.65453324297775
364,Douglas County,Mirror Lake Elementary School,E,2613 Tyson Rd,Villa Rica,30180,81.5,33.730899226100284,-84.87930395981952
365,Douglas County,Burnett Elementary School,E,8277 Connally Dr,Douglasville,30134,76.6,33.75455627464964,-84.72865223100565
366,Douglas County,Brighten Academy,EM,5897 Prestley Mill Rd,Douglasville,30135,87.9,33.7366105,-84.7282922
367,Douglas County,Eastside Elementary School,E,8266 Connally Dr,Douglasville,30134,72.1,33.75507797059928,-84.72875925141862
369,Fayette County,Cleveland Elementary School,E,190 Lester Rd,Fayetteville,30215,69.2,33.44301799066229,-84.51363498329953
370,Fayette County,Crabapple Lane Elementary School,E,450 Crabapple Ln,Peachtree City,30269,78.9,33.44140517127063,-84.59166074930856
371,Fayette County,Whitewater High School,H,100 Wildcat Way,Fayetteville,30215,88.1,44.602578,-105.6759316
372,Fayette County,Bennett's Mill Middle School,M,210 Lester Rd,Fayetteville,30215,79.5,33.44289153866976,-84.51328721040548
373,Fayette County,Inman Elementary School,E,677 Inman Rd,Fayetteville,30215,86.7,33.38980763049088,-84.41767026454256
374,Fayette County,Booth Middle School,M,250 S Peachtree Pkwy,Peachtree City,30269,87.1,33.40554289900887,-84.56696878690062
375,Fayette County,Huddleston Elementary School,E,200 McIntosh Trl,Peachtree City,30269,83.1,33.38538794840482,-84.5688845113105
376,Fayette County,North Fayette Elementary School,E,609 Kenwood Rd,Fayetteville,30214,82.8,33.510909,-84.470107
377,Fayette County,Peeples Elementary School,E,153 Panther Path,Fayetteville,30215,83.3,33.3436121,-84.521254
378,Fayette County,Robert J. Burch Elementary School,E,330 Jenkins Rd,Tyrone,30290,82.3,33.495106254364735,-84.56562299958641
379,Fayette County,Fayette County High School,H,1 Tiger Trl,Fayetteville,30214,81.6,33.452491,-84.460455
380,Fayette County,Fayetteville Elementary School,E,490 Hood Ave,Fayetteville,30214,68.2,33.456765544895354,-84.46462974187966
381,Fayette County,Flat Rock Middle School,M,325 Jenkins Rd,Tyrone,30290,79.9,33.49526732593139,-84.56750194760893
382,Forsyth County,Matt Elementary School,E,7455 Wallace Tatum Rd,Cumming,30028,78.2,34.290609219690936,-84.20038016568846
383,Forsyth County,Cumming Elementary School,E,540 Dahlonega St,Cumming,30040,83.7,34.2190169,-84.1343118
384,Forsyth County,West Forsyth High School,H,4155 Drew Rd,Cumming,30040,89.3,34.21195212126924,-84.21372283177914
385,Forsyth County,Mashburn Elementary School,E,3777 Samples Rd,Cumming,30041,90.5,34.16769970410813,-84.10844894482017
386,Forsyth County,Coal Mountain Elementary School,E,3455 Coal Mountain Dr,Cumming,30028,78.3,33.634138,-86.231454
387,Forsyth County,South Forsyth High School,H,585 Peachtree Pkwy,Cumming,30041,90.8,34.15100318518518,-84.17351292592593
388,Forsyth County,Chattahoochee Elementary School,E,2800 Holtzclaw Rd,Cumming,30041,77.3,34.23555799987572,-84.08675518381042
390,Forsyth County,North Forsyth High School,H,3635 Coal Mountain Dr,Cumming,30028,84.4,33.634138,-86.231454
391,Forsyth County,Vickery Creek Elementary School,E,6280 Post Rd,Cumming,30040,88.8,34.176875,-84.222967
392,Forsyth County,Vickery Creek Middle School,M,6240 Post Rd,Cumming,30040,88.5,34.178190025475466,-84.22173474433593
393,Forsyth County,Otwell Middle School,M,605 Tribble Gap Rd,Cumming,30040,85.3,34.21796937174501,-84.13891691696502
394,Forsyth County,Sawnee Elementary School,E,1616 Canton Hwy,Cumming,30040,86.3,34.239776353442196,-84.17633824107209
395,Forsyth County,Little Mill Middle School,M,6800 Little Mill Rd,Cumming,30041,71.2,34.1571847,-84.0790219
396,Forsyth County,Lambert High School,H,805 Nichols Rd,Suwanee,30024,93.2,34.10686535,-84.13838125956266
397,Forsyth County,Haw Creek Elementary School,E,2555 Echols Rd,Cumming,30041,88.1,34.164713200675855,-84.10030315328186
398,Forsyth County,Forsyth Virtual Academy,MH,1130 Dahlonega Hwy,Cumming,30040,89.9,34.232391920734266,-84.12434392260863
399,Forsyth County,Liberty Middle School,M,7465 Wallace Tatum Rd,Cumming,30028,77.1,34.29058571549639,-84.20045617463674
401,Forsyth County,Kelly Mill Elementary School,E,1180 Chamblee Gap Rd,Cumming,30040,87.7,34.20803199536401,-84.16836190225374
402,Forsyth County,Piney Grove Middle School,M,8135 Majors Rd,Cumming,30041,90.7,34.14242256847378,-84.17550851520507
403,Forsyth County,North Forsyth Middle School,M,3645 Coal Mountain Dr,Cumming,30028,85.9,33.634138,-86.231454
404,Forsyth County,Brandywine Elementary School,E,175 Martin Drive,Alpharetta ,30004,86.5,34.128566358836046,-84.24774578051067
405,Forsyth County,DeSana Middle School,M,625 James Road,Alpharetta ,30004,83.0,34.12758375903614,-84.24615188353414
406,Fulton County,Hembree Springs Elementary School,E,815 Hembree Rd,Roswell,30076,74.6,34.060921,-84.3369104
407,Fulton County,Renaissance Middle School ,M,7155 Hall Rd,Fairburn,30213,64.1,33.615135,-84.625285
408,Fulton County,Renaissance Elementary School,E,7250 Hall Rd,Fairburn,30213,60.6,33.61437775,-84.62818760309153
409,Fulton County,Feldwood Elementary School,E,5790 Feldwood Rd,College Park,30349,48.7,33.5981458,-84.5156324
410,Fulton County,The Main Street Academy ,EM,2861 Lakeshore Dr,College Park,30337,69.4,33.64016113331202,-84.48169278828868
411,Fulton County,Hapeville Charter Career Academy,H,6045 Buffington Rd,College Park,30349,67.9,33.5916512,-84.4986562
412,Fulton County,Esther Jackson Elementary School,E,1400 Martin Road,Roswell,30076,70.7,34.010307,-84.3183579
413,Fulton County,Benjamin Banneker High School,H,6015 Feldwood Rd,College Park,30349,66.1,33.5912921,-84.516068
414,Fulton County,Crabapple Middle School,M,10700 Crabapple Rd,Roswell,30075,85.5,34.0400993,-84.3635372
415,Fulton County,Camp Creek Middle School,M,4345 Welcome All Rd,College Park,30349,67.5,33.63646597151173,-84.52750200626018
416,Fulton County,Roswell High School,H,11595 King Rd,Roswell,30075,88.7,34.06121665,-84.38284183774947
417,Fulton County,Hapeville Elementary School,E,3440 N Fulton Ave,Hapeville,30354,74.1,33.660355,-84.4076072
418,Fulton County,New Prospect Elementary School,E,3055 Kimball Bridge Rd,Alpharetta,30022,85.2,34.050217450000005,-84.26834355
419,Fulton County,Northwood Elementary School,E,10200 Wooten Rd,Roswell,30076,88.7,34.029484350000004,-84.30657251900254
420,Fulton County,Centennial High School,H,9310 Scott Rd,Roswell,30076,81.0,34.005942812390984,-84.28882475475461
421,Fulton County,Stonewall Tell Elementary School,E,3310 Stonewall Tell Rd,College Park,30349,73.9,33.664931800000005,-84.59203745116294
422,Fulton County,Hillside Elementary School,E,9250 Scott Rd,Roswell,30076,87.2,34.0099416,-84.2960237
423,Fulton County,Dunwoody Springs Elementary School,E,8100 Roberts Dr,Sandy Springs,30350,72.9,33.9766819,-84.3414834
424,Fulton County,S. L. Lewis Elementary School,E,6201 Connell Rd,College Park,30349,50.8,33.576352150000005,-84.50402524663897
425,Fulton County,Love T. Nolan Elementary School,E,2725 Creel Rd,College Park,30349,49.9,33.5723148,-84.48061126874114
426,Fulton County,C.H. Gullatt Elementary School,E,6110 Dodson Rd,Union City,30291,68.9,33.58770527908707,-84.5925106708252
427,Fulton County,Holcomb Bridge Middle School,M,2700 Holcomb Bridge Rd,Alpharetta,30022,72.4,33.9946672,-84.2818033
428,Fulton County,Creekside High School,H,7405 Herndon Rd,Fairburn,30213,64.2,33.5562965,-84.6241801
429,Fulton County,Palmetto Elementary School,E,505 Carlton Rd,Palmetto,30268,72.8,33.5295012,-84.6717197
430,Fulton County,Sweet Apple Elementary School,E,12025 Etris Rd,Roswell,30075,84.0,34.091689,-84.370838
431,Fulton County,Manning Oaks Elementary School ,E,405 Cumming St,Alpharetta,30004,79.9,34.079864850880135,-84.28576969478569
432,Fulton County,Heritage Elementary School,E,2600 Jolly Rd,Atlanta,30349,68.7,33.6111346,-84.47422099572401
433,Fulton County,Elkins Pointe Middle School,M,11290 Elkins Rd,Roswell,30076,83.1,34.056104,-84.3348074
434,Fulton County,Cogburn Woods Elementary School,E,13080 Cogburn Rd,Milton,30004,76.9,34.09884280726676,-84.28089164380978
435,Fulton County,Autrey Mill Middle School,M,4110 Old Alabama Rd,Johns Creek,30022,88.0,34.018408,-84.241316
436,Fulton County,Mountain Park Elementary School,E,11895 Mountain Park Rd,Roswell,30075,85.1,34.07118165,-84.40438719627227
438,Fulton County,McClarin Success Academy,H,3605 Main St,College Park,30337,37.1,33.6566884,-84.4488997
439,Fulton County,Haynes Bridge Middle School,M,10665 Haynes Bridge Rd,Alpharetta,30022,81.4,34.035958990547904,-84.2814217889762
440,Fulton County,Independence High School,H,86 School Dr,Alpharetta,30009,48.5,34.07771389850887,-84.29802649847639
441,Fulton County,A. Philip Randolph Elementary School,E,5320 Campbellton Rd SW,Atlanta,30331,73.1,33.70542373893417,-84.56194644460535
442,Fulton County,River Eves Elementary School,E,9000 Eves Rd,Roswell,30076,87.0,33.99565071717172,-84.30568638383838
443,Fulton County,Shakerag Elementary School,E,10885 Rogers Cir,Johns Creek,30097,93.4,34.04595573733653,-84.13035748571077
444,Fulton County,Wilson Creek Elementary School,E,6115 Wilson Rd,Johns Creek,30097,87.3,34.03491439595539,-84.18161577977027
445,Fulton County,Amana Academy,EM,285 S Main St,Alpharetta,30009,91.9,34.0702683,-84.2974482
446,Fulton County,Medlock Bridge Elementary School,E,10215 Medlock Bridge Pkwy,Johns Creek,30022,88.0,34.02947665,-84.19064827633684
447,Fulton County,Webb Bridge Middle School,M,4455 Webb Bridge Rd,Alpharetta,30005,93.1,34.06773635239366,-84.23014494727433
448,Fulton County,Hamilton E. Holmes Elementary School,E,2301 Connally Dr,East Point,30344,63.3,33.696071,-84.462994
449,Fulton County,Liberty Point Elementary School,E,9000 Highpoint Rd,Union City,30291,73.7,33.598428,-84.565
450,Fulton County,Sandtown Middle School ,M,5400 Campbellton Rd SW,Atlanta,30331,68.7,33.702801253417,-84.56403581584814
451,Fulton County,Taylor Road Middle School,M,5150 Taylor Rd,Johns Creek,30022,90.8,34.0528191,-84.2093953
452,Fulton County,Hapeville Charter Middle School,M,3535 South Fulton Avenue,Hapeville,30354,60.8,33.657435,-84.410198
453,Fulton County,Tri-Cities High School,H,2575 Harris St,East Point,30344,62.6,33.6848289,-84.4357355
454,Fulton County,Ocee Elementary School,E,4375 Kimball Bridge Rd,Johns Creek,30022,88.4,34.055215925313696,-84.23138240488564
455,Fulton County,Woodland Elementary School,E,1130 Spalding Dr,Atlanta,30350,84.8,33.959848378378375,-84.34956740540541
457,Fulton County,Paul D. West Middle School,M,2376 Headland Dr,East Point,30344,55.4,33.6905611,-84.466435
458,Fulton County,Lake Forest Elementary School,E,5920 Sandy Springs Cir,Sandy Springs,30328,66.4,33.9242688,-84.3785379
459,Gwinnett County,Rock Springs Elementary School,E,888 Rock Springs Rd,Lawrenceville,30043,84.5,34.04886533705516,-84.00622416118753
460,Gwinnett County,Grayson High School,H,50 Hope Hollow Rd,Loganville,30052,83.3,33.8685422,-83.9240404
461,Gwinnett County,Norcross High School,H,5300 Spalding Dr,Norcross,30092,74.2,33.966946199999995,-84.21201888315217
462,Gwinnett County,Trickum Middle School ,M,130 Killian Hill Rd SW,Lilburn,30047,81.4,33.885257770164614,-84.11971486336463
463,Gwinnett County,Centerville Elementary School,E,3115 Centerville Hwy,Snellville,30039,78.4,33.8563981,-84.0209043
464,Gwinnett County,R.D. Head Elementary  School,E,1801 Hewatt Rd SW,Lilburn,30047,89.6,33.851356,-84.064152
465,Gwinnett County,Shiloh High School,H,4210 Shiloh Rd,Snellville,30039,65.9,33.82417522756119,-84.07333009962566
466,Gwinnett County,Pinckneyville Middle School,M,5440 W Jones Bridge Rd,Norcross,30092,83.7,33.984409400000004,-84.22904741550508
467,Gwinnett County,Meadowcreek High School,H,4455 Steve Reynolds Blvd,Norcross,30093,68.0,33.923119,-84.14716126923078
468,Gwinnett County,Richards Middle School,M,3555 Sugarloaf Pkwy,Lawrenceville,30044,81.3,33.92566857473916,-84.02151393809947
469,Gwinnett County,Phoenix High School,H,501 W Pike St,Lawrenceville,30046,56.8,33.96297895,-84.00477230108618
470,Gwinnett County,Dacula Elementary School,E,2500 Fence Rd,Dacula,30019,80.1,33.9857934,-83.9296458
471,Gwinnett County,Craig Elementary School,E,1075 Rocky Rd,Lawrenceville,30044,89.9,33.902266350000005,-84.01824525169707
472,Gwinnett County,Collins Hill High School,H,50 Taylor Rd,Suwanee,30024,81.0,34.0166,-84.0221
473,Gwinnett County,Harbins Elementary School,E,3550 New Hope Rd,Dacula,30019,91.6,33.94321564499973,-83.85569714450656
474,Gwinnett County,Crews Middle School,M,1000 Old Snellville Hwy,Lawrenceville,30044,88.5,33.907997,-84.011182
475,Gwinnett County,Meadowcreek Elementary School,E,5025 Georgia Belle Ct,Norcross,30093,66.9,33.92063705938938,-84.16828662304154
476,Gwinnett County,Freeman's Mill Elementary School,E,2303 Old Peachtree Rd,Lawrenceville,30043,81.8,34.022845041564715,-83.9310626062347
477,Gwinnett County,Corley Elementary School,E,1331 Pleasant Hill Rd,Lawrenceville,30044,74.4,33.9374529600665,-84.12065204003208
478,Gwinnett County,Mulberry Elementary School,E,442 E Union Grove Cir,Auburn,30011,78.1,34.03240437482113,-83.86194897111402
479,Gwinnett County,Lanier Middle School,M,6482 Suwanee Dam Rd,Buford,30518,90.8,34.148144349999995,-84.0654186072951
480,Gwinnett County,Lovin Elementary School,E,1705 New Hope Rd,Lawrenceville,30045,77.2,33.924930023167285,-83.92293886065315
481,Gwinnett County,Knight Elementary School,E,401 N River Road,Lilburn,30047,77.3,44.595949,-73.881289
482,Gwinnett County,Beaver Ridge Elementary School,E,1978 Beaver Ruin Rd,Norcross,30071,75.2,33.932571,-84.17694452578469
483,Gwinnett County,Shiloh Middle School,M,4285 Shiloh Rd,Snellville,30039,69.3,33.824866836625375,-84.07124803231319
484,Gwinnett County,Hopkins Elementary School,E,1315 Dickens Rd NW,Lilburn,30047,79.7,33.908785,-84.147473
485,Gwinnett County,Minor Elementary School,E,4129 Shady Dr NW,Lilburn,30047,81.4,33.91460261783925,-84.12667079788667
486,Gwinnett County,McKendree Elementary School,E,1600 Riverside Pkwy,Lawrenceville,30043,76.0,33.9794651,-84.0265268
487,Gwinnett County,Shiloh Elementary School,E,2400 Ross Rd,Snellville,30039,74.5,33.8248352147651,-84.07483929530201
488,Gwinnett County,M. H. Mason Elementary School,E,3030 Bunten Rd,Duluth,30096,89.9,33.99532543764747,-84.11999210351063
489,Gwinnett County,Rosebud Elementary School,E,4151 Rosebud Rd,Loganville,30052,77.5,33.7919524,-83.9633163
490,Gwinnett County,Dacula Middle School,M,137 Dacula Rd,Dacula,30019,85.4,33.99154430612245,-83.89665687755102
491,Gwinnett County,GIVE Center East,MH,723 Hi Hope Rd,Lawrenceville,30043,34.7,33.98981476561941,-83.97284576773185
492,Gwinnett County,Cedar Hill Elementary School,E,3615 Sugarloaf Pkwy,Lawrenceville,30044,68.4,33.92594210336783,-84.02318914193178
493,Gwinnett County,Partee Elementary School,E,4350 Campbell Rd,Snellville,30039,82.0,33.79530929554984,-84.05348094529168
494,Gwinnett County,Taylor Elementary School,E,600 Taylor School Dr,Lawrenceville,30043,88.0,45.359224,-90.842881
495,Gwinnett County,W. J. Cooper Elementary School,E,555 Ozora Rd,Loganville,30052,78.8,33.892781,-83.9143929090909
496,Gwinnett County,Patrick Elementary School,E,2707 Kilgore Rd,Buford,30519,86.0,34.0890589,-83.95743417337641
497,Gwinnett County,Parsons Elementary School,E,1615 Old Peachtree Road,Suwanee,30024,88.9,34.008475,-84.1297247
498,Gwinnett County,Peachtree Ridge High School,H,1555 Old Peachtree Rd NW,Suwanee,30024,86.9,34.01401665,-84.08599569190558
499,Gwinnett County,Duluth Middle School ,M,3200 Pleasant Hill Rd,Duluth,30096,84.7,33.984102,-84.158505
500,Hall County,Friendship Elementary School,E,4450 Friendship Rd,Buford,30519,72.6,34.13497837200952,-83.94186517426886
501,Henry County,Ola Elementary School,E,278 N Ola Rd,McDonough,30252,72.0,33.44505711496673,-84.04146895695584
502,Henry County,Union Grove High School,H,120 E Lake Rd,McDonough,30252,80.1,33.5074113770369,-84.12669083199121
503,Henry County,Luella High School,H,603 Walker Dr,Locust Grove,30248,66.3,33.3803892,-84.1959003
504,Henry County,Dutchtown High School,H,149 Mitchell Rd,Hampton,30228,69.3,33.47077632026227,-84.25524947687052
505,Henry County,Luella Elementary School,E,575 Walker Dr,Locust Grove,30248,59.0,33.3803892,-84.1959003
506,Henry County,Dutchtown Elementary School,E,159 Mitchell Rd,Hampton,30228,69.6,33.4704190666687,-84.25524418235713
507,Henry County,Cotton Indian Elementary School,E,1201 Old Conyers Rd,Stockbridge,30281,65.8,33.560024129826054,-84.20174932194409
508,Henry County,Wesley Lakes Elementary School,E,685 McDonough Pkwy,McDonough,30253,64.4,33.4673398,-84.1621754
509,Henry County,Pate's Creek Elementary School,E,1309 Jodeco Rd,Stockbridge,30281,74.2,33.49535396611952,-84.24103188331443
510,Henry County,Pleasant Grove Elementary School,E,150 Reagan Rd,Stockbridge,30281,65.8,33.54872230232931,-84.13877571548558
511,Henry County,Mount Carmel Elementary School,E,2450 Mt. Carmel Rd,Hampton,30228,71.4,33.43683119088569,-84.27158508373918
513,Henry County,East Lake Elementary School,E,199 E Lake Rd,McDonough,30252,76.9,33.507613,-84.13453
514,Henry County,Dutchtown Middle School,M,155 Mitchell Rd,Hampton,30228,71.2,33.470561968106125,-84.25524630016248
515,Henry County,Walnut Creek Elementary School,E,3535 McDonough Pkwy,McDonough,30253,55.9,33.470008294107075,-84.15376930554557
516,Henry County,Rocky Creek Elementary School,E,803 Hampton-Locust Grove Rd,Hampton,30228,73.4,33.37699674183768,-84.24477647399962
517,Henry County,Locust Grove Middle School,M,3315 S Ola Rd,Locust Grove,30248,54.7,33.3456300341538,-84.06253848655534
518,Henry County,Locust Grove High School,H,3275 S Ola Rd,Locust Grove,30248,67.6,33.34957977091751,-84.06151791565176
519,Henry County,Hampton Middle School,M,799 Hampton-Locust Grove Rd,Hampton,30228,63.7,33.37885,-84.248001
520,Henry County,Austin Road Elementary School,E,50 Austin Rd,Stockbridge,30281,61.5,33.61350685296623,-84.18571833653091
521,Henry County,Stockbridge High School,H,1151 Old Conyers Rd,Stockbridge,30281,63.0,33.558218,-84.20362
522,Henry County,Hickory Flat Charter Elementary School,E,841 Brannan Rd,McDonough,30253,68.7,33.504708236347646,-84.16739641985407
523,Henry County,Unity Grove Elementary School,E,1180 LeGuin Mill Rd,Locust Grove,30248,70.5,33.384783,-84.047293
524,Henry County,Ola High School,H,357 N Ola Rd,McDonough,30252,79.0,33.44517285422563,-84.04166402741858
525,Henry County,Hampton High School,H,795 Hampton-Locust Grove Rd,Hampton,30228,66.8,33.37883801082206,-84.24810988130992
526,Henry County,Eagle's Landing High School,H,301 Tunis Rd,McDonough,30253,63.7,33.48982585,-84.20991725344376
527,Henry County,Eagle's Landing Middle School,M,295 Tunis Rd,McDonough,30253,61.4,33.488260749999995,-84.2087339334822
528,Henry County,Austin Road Middle School,M,100 Austin Rd,Stockbridge,30281,66.5,33.614023175933134,-84.18571325238925
529,Henry County,Red Oak Elementary School,E,175 Monarch Village Way,Stockbridge,30281,62.8,33.5256791,-84.2669768
530,Henry County,New Hope Elementary School,E,1655 New Hope Rd,Locust Grove,30248,64.0,33.39270368391877,-84.02231250673809
531,Henry County,Tussahaw Elementary School,E,225 Coan Dr,McDonough,30252,60.3,33.39209381743095,-84.11369117007355
532,Henry County,Flippen Elementary School,E,425 Peach Dr,McDonough,30253,45.8,33.4940948,-84.19978819773377
533,Henry County,Ola Middle School,M,353 N Ola Rd,McDonough,30252,78.2,33.44506386463809,-84.04166552546012
534,Henry County,Luella Middle School,M,2075 Hampton-Locust Grove Rd,Locust Grove,30248,53.8,33.37464719057087,-84.20800980164015
535,Henry County,Union Grove Middle School,M,210 E Lake Rd,McDonough,30252,78.5,33.507428109069714,-84.12913380336528
536,Newton County,Veterans Memorial Middle School,M,13357 Brown Bridge Rd,Covington,30016,63.5,33.5731645759717,-83.97397130226342
537,Newton County,South Salem Elementary School,E,5335 Salem Rd,Covington,30016,67.8,33.56672341175371,-83.94090182717463
538,Newton County,Live Oak Elementary School,E,500 Kirkland Rd,Covington,30016,63.2,33.59121244294769,-83.92829446757356
539,Newton County,Clements Middle School,M,66 Jack Neely Rd,Covington,30016,67.3,33.61122936401782,-83.93582537389612
540,Newton County,Flint Hill Elementary School,E,1300 Airport Road,Oxford,30054,67.9,33.647779,-83.844098
541,Newton County,Newton County Theme School at Ficquett,EM,2207 Williams Street,Covington,30014,93.1,33.6311514,-83.8687925
542,Newton County,Fairview Elementary School,E,3325 Fairview Rd,Covington,30016,64.8,33.612318,-83.955824
544,Newton County,Cousins Middle School,M,8187 Carlton Trl NW,Covington,30014,65.7,33.61197792758695,-83.87668040375638
545,Newton County,Eastside High School,H,10245 Eagle Drive,Covington,30014,80.5,33.570919,-83.848134
546,Newton County,West Newton Elementary School,E,13387 Brown Bridge Rd,Covington,30016,67.7,33.57376788252224,-83.97330075600391
547,Paulding County,Bessie L. Baggett Elementary School,E,948 Williams Lake Rd,Powder Springs,30127,82.9,33.83414572122683,-84.75618160457081
548,Paulding County,Lillian C. Poole Elementary School,E,1002 Wayside Ln,Dallas,30132,70.9,33.916065,-84.919945
549,Paulding County,South Paulding High School,H,1364 Winn Rd,Douglasville,30134,74.8,33.785984208468925,-84.85097185958237
550,Paulding County,North Paulding High School,H,300 N Paulding Dr,Dallas,30132,75.0,41.163135,-73.757524
551,Paulding County,Burnt Hickory Elementary School,E,80 N Paulding Dr,Dallas,30132,83.7,41.163135,-73.757524
552,Paulding County,W.C. Abney Elementary School,E,1186 Colbert Rd,Dallas,30132,74.7,33.975469204003865,-84.79522559596057
553,Paulding County,McGarity Elementary School,E,262 Rakestraw Mill Rd,Hiram,30141,78.0,33.906974,-84.764766
554,Paulding County,South Paulding Middle School,M,592 Nebo Rd,Dallas,30157,81.4,33.821067,-84.868345
555,Paulding County,Sam D. Panter Elementary School,E,190 Panter School Rd,Hiram,30141,76.6,33.860348,-84.764723
556,Paulding County,Nebo Elementary School,E,2843 Nebo Rd,Dallas,30157,76.5,33.834851550654484,-84.83912379360073
557,Paulding County,C. A. Roberts Elementary School,E,1833 Mount Tabor Church Rd,Dallas,30157,76.7,33.940554812316826,-84.76943893922238
558,Paulding County,P. B. Ritch Middle School,M,60 Old Country Trl,Dallas,30157,83.8,33.9126513,-84.7691992
559,Paulding County,East Paulding High School,H,3320 E Paulding Dr,Dallas,30157,71.2,33.955515,-84.779918
560,Paulding County,J. A. Dobbins Middle School,M,637 Williams Lake Rd,Powder Springs,30127,71.4,33.833943048791106,-84.74307728090048
561,Paulding County,Allgood Elementary School,E,312 Hart Rd,Dallas,30157,69.1,33.87253662470717,-84.84671037148463
563,Paulding County,Connie Dugan Elementary School,E,1362 Winn Rd,Douglasville,30134,70.9,33.78598646516157,-84.85097765379322
564,Paulding County,Hal Hutchens Elementary School,E,586 Clonts Rd,Douglasville,30134,72.5,33.80440547832274,-84.77121449127254
565,Paulding County,East Paulding Middle School,M,2945 Hiram-Acworth Hwy.,Dallas,30157,78.2,33.93329544017579,-84.74657321070801
566,Paulding County,Austin Middle School,M,3490 Ridge Rd,Douglasville,30134,84.0,33.8042495,-84.82989037133086
567,Pickens County,Hill City Elementary School,E,600 Hill Cir,Jasper,30143,70.7,34.473249022121564,-84.51646517838438
568,Pickens County,Pickens County Middle School,M,1802 Refuge Rd,Jasper,30143,64.4,34.4442302,-84.4192724647767
569,Pickens County,Pickens County High School,H,500 Dragon Dr,Jasper,30143,77.4,34.44923035,-84.39682245031055
570,Pickens County,Jasper Elementary School,E,158 Stegall Dr,Jasper,30143,54.1,34.468736899999996,-84.433692741101
571,Pickens County,Jasper Middle School,M,339 W Church St,Jasper,30143,74.0,34.465190899999996,-84.43568784834241
572,Rockdale County,Peek's Chapel Elementary School,E,2800 Avalon Pkwy,Conyers,30013,60.2,41.858181,-83.394203
573,Rockdale County,General Ray Davis Middle School,M,3375 E Fairview Rd SW,Stockbridge,30281,68.4,33.6109951,-84.1644828
574,Rockdale County,Hicks Elementary School,E,1300 Pine Log Rd NE,Conyers,30012,58.4,33.664953,-84.003815
575,Rockdale County,Honey Creek Elementary School,E,700 Honey Creek Rd SE,Conyers,30094,75.2,33.596337,-84.023338
576,Rockdale County,Heritage High School,H,2400 Granade Rd.,Conyers,30094,74.7,33.628348,-84.049038
577,Rockdale County,Barksdale Elementary School,E,596 Oglesby Bridge Rd SE,Conyers,30094,73.3,33.56771356053801,-84.02565460541696
578,Rockdale County,Sims Elementary School,E,1821 Walker Rd.,Conyers,30094,60.5,30.7241128,-95.5298809
579,Rockdale County,Lorraine Elementary School,E,3343 E Fairview Rd SW,Stockbridge,30281,71.5,33.6109951,-84.1644828
580,Rockdale County,Conyers Middle School,M,400 Sigman Rd.,Conyers,30012,67.0,33.680989,-83.992879
581,Rockdale County,Edwards Middle School,M,2633 Stanton Rd SE,Conyers,30094,64.9,33.62294544956537,-84.03484666083855
582,Rockdale County,Alpha Academy,EMH,1045 North St.,Conyers,30012,25.4,50.2578056,12.6309789
583,Rockdale County,Open Campus Rockdale School,H,1115 West Ave.,Conyers,30012,47.3,33.6692474,-84.0223803
584,Griffin-Spalding County,Spalding High School,H,433 Wilson Rd,Griffin,30224,64.4,33.22855571331061,-84.23267395687176
585,Griffin-Spalding County,Moreland Road Elementary School,E,455 Moreland Rd,Griffin,30224,80.5,33.19685475510204,-84.30171528571428
586,Griffin-Spalding County,Carver Road Middle School,M,2185 Carver Rd,Griffin,30224,72.7,33.19388657142857,-84.29789671428571
587,Griffin-Spalding County,Kennedy Road Middle School,M,280 Kennedy Rd,Griffin,30223,57.3,33.266557517402035,-84.23840156682522
588,Griffin-Spalding County,Rehoboth Road Middle School,M,1500 Rehoboth Rd,Griffin,30224,67.7,33.218242581187326,-84.18941948128126
589,Griffin-Spalding County,Griffin High School,H,1617 W Poplar St,Griffin,30224,63.3,33.242066533333336,-84.29915493333334
590,Griffin-Spalding County,Cowan Road Elementary School,E,1233 Cowan Rd,Griffin,30223,65.4,33.27985914285714,-84.30599097959184
591,Griffin-Spalding County,Jordan Hill Road Elementary School,E,75 Jordan Hill Rd,Griffin,30223,69.3,33.29788887411944,-84.26259491669899
592,Griffin-Spalding County,Futral Road Elementary School,E,180 Futral Rd,Griffin,30224,79.1,33.22420012352551,-84.23665555739468
593,Griffin-Spalding County,Cowan Road Middle School,M,1185 Cowan Rd,Griffin,30223,50.9,33.27793,-84.30600542857142
594,Walton County,Atha Road Elementary School,E,821 H D Atha Rd,Monroe,30655,79.1,33.79194183136513,-83.78484217474609
595,Walton County,Monroe Elementary School,E,140 Dillard Dr,Monroe,30656,63.6,33.823179,-83.73948948286146
596,Walton County,Walnut Grove High School,H,4863 Guthrie Cemetery Rd,Loganville,30052,73.1,33.752372969576214,-83.87103474806958
597,Walton County,Loganville Elementary School,E,4303 Lawrenceville Hwy,Loganville,30052,89.7,33.83706969184777,-83.89198601348119
598,Walton County,Carver Middle School,M,1095 Good Hope Rd,Monroe,30655,64.9,33.796142,-83.679451
599,Walton County,Loganville High School,H,100 Trident Trail,Loganville,30052,80.6,33.8339602,-83.8677326
600,Walton County,Youth Elementary School,E,4009 Center Hill Church Road,Loganville,30052,88.4,33.78076069612743,-83.86185750458847
601,Walton County,Monroe Area High School,H,300 Double Springs Church Rd,Monroe,30656,67.9,33.826359,-83.77162
602,Walton County,Loganville Middle School,M,4869 Bay Creek Church Road,Loganville,30052,77.9,33.85185274491261,-83.86235480454367
603,Atlanta Public Schools,Brown Middle School,M,255 James P. Brawley Dr. SW,Atlanta,30314,64.3,33.749015216216215,-84.412894
604,Atlanta Public Schools,Parkside Elementary School,E,685 Mercer St SE,Atlanta,30312,73.0,33.735009149999996,-84.36465517125134
605,Atlanta Public Schools,Heritage Academy,E,3500 Villa Cir SE,Atlanta,30354,60.4,33.65976887784481,-84.3790474805728
606,Atlanta Public Schools,Dobbs Elementary School ,E,2025 Jonesboro Rd SE,Atlanta,30315,67.9,33.69802215,-84.37211644928965
607,Atlanta Public Schools,Finch Elementary School,E,1114 Avon Ave SW,Atlanta,30310,62.8,33.72251385,-84.42442570566186
608,Atlanta Public Schools,KIPP STRIVE Academy,EM,1444 Lucile Ave SW,Atlanta,30310,76.8,33.74254740816327,-84.43566981632654
609,Atlanta Public Schools,Springdale Park Elementary School,E,1246 Ponce de Leon Ave NE,Atlanta,30306,92.4,33.775131900000005,-84.34654093458957
610,Atlanta Public Schools,KIPP Vision Academy,EM,660 McWilliams Rd SE,Atlanta,30315,65.9,33.6887236,-84.3619469
611,Atlanta Public Schools,The Kindezi Schools,EM,1890 Detroit Ave NW,Atlanta,30314,77.0,33.76639975,-84.44883547286855
612,Atlanta Public Schools,Long Middle School,M,3200 Latona Dr SW,Atlanta,30354,64.6,33.667608055555554,-84.39492059259258
613,Atlanta Public Schools,Ralph J. Bunche Middle School ,M,1925 Niskey Lake Rd SW,Atlanta,30331,65.1,33.702113,-84.529214
614,Atlanta Public Schools,Benjamin E. Mays High School ,H,3450 Benjamin E Mays Dr SW,Atlanta,30331,56.7,33.73797316326531,-84.50098534693878
615,Atlanta Public Schools,Maynard H. Jackson High School ,H,801 Glenwood Ave SE,Atlanta,30316,67.4,33.739245499999996,-84.36189931220713
616,Atlanta Public Schools,Sylvan Hills Middle School,M,1461 Sylvan Rd SW,Atlanta,30310,65.0,33.7264481,-84.4181487
617,Atlanta Public Schools,North Atlanta High School,H,4111 Northside Pkwy NW,Atlanta,30327,77.1,33.8647099,-84.4497036
618,Atlanta Public Schools,Cascade Elementary School,E,2326 Venetian Dr SW,Atlanta,30311,57.4,33.71720175,-84.46553092111438
619,Atlanta Public Schools,Charles R. Drew Charter School Elementary Academy,E,301 E Lake Blvd SE,Atlanta,30317,89.8,33.742105400105906,-84.31533663674679
620,Atlanta Public Schools,Atlanta Neighborhood Charter School-Middle,M,820 Essie Ave SE,Atlanta,30316,71.1,33.73207695,-84.35439719367912
621,Atlanta Public Schools,KIPP STRIVE Primary School,E,1448 Lucile Ave SW,Atlanta,30310,78.7,33.74255308163266,-84.43570516326531
622,Atlanta Public Schools,KIPP Vision Primary Academy,E,660 McWilliams Rd SE,Atlanta,30315,52.6,33.6887236,-84.3619469
623,Atlanta Public Schools,KIPP WAYS Primary School,E,350 Temple St NW,Atlanta,30314,57.5,33.76419320358025,-84.42210510319255
624,Atlanta Public Schools,Young Middle School,M,3116 Benjamin E Mays Dr SW,Atlanta,30311,50.2,33.7340735,-84.49115499999999
625,Atlanta Public Schools,Perkerson Elementary School,E,2040 Brewer Blvd SW,Atlanta,30310,72.0,33.69888575,-84.41356449999999
626,Atlanta Public Schools,Bolton Academy,E,2268 Adams Dr NW,Atlanta,30318,67.8,33.81757464,-84.45488752
627,Atlanta Public Schools,Deerwood Academy,E,3070 Fairburn Rd SW,Atlanta,30331,59.8,33.67104395,-84.5128982593204
628,Atlanta Public Schools,Burgess-Peterson Academy ,E,480 Clifton St SE,Atlanta,30316,80.7,33.7406619,-84.3315914
629,Atlanta Public Schools,School of Technology at Carver,H,55 McDonough Blvd SE,Atlanta,30315,64.6,33.7199236,-84.3861775
630,Atlanta Public Schools,Westside Atlanta Charter School,EM,1903 Drew Dr NW,Atlanta,30318,76.8,42.087013,-74.770462
631,Atlanta Public Schools,Booker T. Washington High School,H,45 Whitehouse Dr SW,Atlanta,30314,56.9,33.7540663,-84.420035
632,Atlanta Public Schools,The Forrest Hill Academy,MH,2930 Forrest Hills Dr SW,Atlanta,30315,17.8,33.674303652952744,-84.39928357227937
633,Atlanta Public Schools,Atlanta Classical Academy,EMH,3260 Northside Dr NW,Atlanta,30305,75.0,33.8387633,-84.4081854
634,Atlanta Public Schools,Harper-Archer Middle School,M,3399 Collier Dr NW,Atlanta,30331,53.8,33.7688384337442,-84.49911347479282
635,Atlanta Public Schools,Atlanta Neighborhood Charter School-Elementary,E,688 Grant St SE,Atlanta,30315,88.6,33.73566275,-84.3761111
636,Atlanta Public Schools,Miles Intermediate Elementary School,E,4215 Bakers Ferry Rd SW,Atlanta,30331,69.9,33.7536928,-84.5249523
637,Atlanta Public Schools,Charles R. Drew Charter School,MH,300 E Lake Blvd SE,Atlanta,30317,86.9,33.742119,-84.315343
638,Atlanta Public Schools,Usher-Collier Elementary School,E,631 Harwell Rd NW,Atlanta,30318,62.7,33.7725,-84.4938889
639,Atlanta Public Schools,KIPP WAYS Academy,EM,350 Temple St NW,Atlanta,30314,77.8,33.76419320358025,-84.42210510319255
640,Buford City,Buford Academy,E,2705 Robert Bell Pkwy,Buford,30518,92.6,34.1297142,-83.9903429
641,Buford City,Buford High School,H,2750 Sawnee Ave,Buford,30518,89.0,34.1326364,-83.9865748
642,Buford City,Buford Elementary School,E,2500 Sawnee Ave,Buford,30518,96.0,34.1347411,-83.9958738
643,Cartersville City,Cartersville Primary School,E,315 Etowah Dr,Cartersville,30120,83.7,34.150483,-84.809238
644,Cartersville City,Cartersville Elementary School,E,340 Old Mill Rd,Cartersville,30120,77.6,34.149896,-84.807997
645,Cartersville City,Cartersville Middle School,M,825 Douthit Ferry Rd,Cartersville,30120,78.0,34.13503675,-84.82247761376541
646,City Schools of Decatur,Oakhurst Elementary School,E,175 Mead Rd,Decatur,30030,98.2,33.76451783838384,-84.30589156565657
647,City Schools of Decatur,Fifth Avenue Elementary School,E,101 Fifth Avenue,Decatur,30030,83.3,-36.8777416,174.7141672
648,City Schools of Decatur,Westchester Elementary School,E,758 Scott Blvd,Decatur,30030,97.9,33.7832631,-84.30629685581854
649,City Schools of Decatur,New Glennwood Elementary School,E,440 E Ponce de Leon Ave,Decatur,30030,96.0,33.77565520512821,-84.29044187179487
650,City Schools of Decatur,Winnona Park Elementary School,E,510 Avery St,Decatur,30030,97.6,33.7650372,-84.2898293
651,City Schools of Decatur,Clairemont Elementary School,E,155 Erie Ave,Decatur,30030,68.7,33.7825534,-84.29623377472268
652,Marietta City,Marietta High School ,H,1171 Whitlock Ave SW,Marietta,30064,76.3,33.9522711,-84.5516445
653,Marietta City,Sawyer Road Elementary School,E,840 Sawyer Rd,Marietta,30062,60.0,33.986180000000004,-84.5274085303371
654,Marietta City,A.L. Burruss Elementary School,E,325 Manning Rd SW,Marietta,30064,69.3,33.94444131955855,-84.57842439661327
655,Marietta City,Dunleith Elementary School,E,120 Saine Dr SW,Marietta,30008,83.4,33.91499202047093,-84.56263236693896
656,Marietta City,Marietta Middle School ,M,121 Winn St NW,Marietta,30064,70.3,33.954927049999995,-84.55847913942019
657,Marietta City,Lockheed Elementary School,E,1205 Merritt Rd,Marietta,30062,70.8,33.9719867,-84.51746062538183
658,Marietta City,Marietta 6th Grade School,M,340 Aviation Rd SE,Marietta,30060,81.9,33.9442583,-84.52892255389298
659,Social Circle City,Social Circle Primary School,E,439 Annie P Henderson Dr,Social Circle,30025,63.2,33.65945115158224,-83.71067713967322
660,Social Circle City,Social Circle Middle School,M,154 Alcova Dr,Social Circle,30025,63.4,33.659229100000005,-83.72951702705402
661,Social Circle City,Social Circle Elementary School,E,240 W Hightower Trl,Social Circle,30025,71.3,33.6577039,-83.72034669161857
662,Social Circle City,Social Circle High School,H,154 Alcova Dr,Social Circle,30025,64.2,33.659229100000005,-83.72951702705402
663,Barrow County,Auburn Elementary School,E,1334 6th Ave,Auburn,30011,61.5,34.01026945073206,-83.82437212683016
664,Barrow County,Winder-Barrow High School,H,272 N 5th Ave,Winder,30680,69.4,34.00352224658433,-83.72597572668707
665,Barrow County,Holsenbeck Elementary School,E,445 Holsenbeck School Rd,Winder,30680,71.2,34.007162,-83.674692
666,Barrow County,Statham Elementary School,E,1970 Broad St,Statham,30666,64.3,33.96440403090737,-83.593145380947
667,Bartow County,Emerson Elementary School,E,220 Old Alabama Rd,Emerson,30137,59.1,34.1166429,-84.7727962
668,Carroll County,Temple Elementary School,E,95 Otis St,Temple,30179,55.9,33.74093703050147,-85.03504670927174
669,Carroll County,Bowdon Elementary School,E,223 Kent Ave,Bowdon,30108,77.1,33.526272535714284,-85.252742625
670,Carroll County,Central High School,H,113 Central High Rd,Carrollton,30116,75.8,33.553821,-85.071066
671,Carroll County,Bowdon High School,H,504 W College St,Bowdon,30108,75.8,33.538041,-85.26617
672,Carroll County,Central Elementary School,E,175 Primary School Rd,Carrollton,30116,69.8,33.54368,-85.071992
673,Carroll County,Sand Hill Elementary School,E,45 Sandhill Ln,Carrollton,30116,70.2,33.6384219838658,-84.97049437915373
674,Carroll County,Villa Rica High School,H,600 Rocky Branch Rd,Villa Rica,30180,76.7,33.726191,-84.949115
675,Cherokee County,Oak Grove Elementary School Fine Arts Academy,E,6118 Woodstock Rd,Acworth,30102,76.1,34.10012285389907,-84.60808974409812
676,Cherokee County,Hickory Flat Elementary School,E,2755 E Cherokee Dr,Canton,30115,82.4,34.17084505,-84.42387688582158
677,Cherokee County,Cherokee High School,H,930 Marietta Hwy,Canton,30114,73.3,34.23425245,-84.50297673413905
678,Cherokee County,Macedonia Elementary School,E,10370 E Cherokee Dr,Canton,30115,76.0,34.248504218888435,-84.3585887764637
679,Clayton County,Anderson Elementary School,E,4199 Old Rock Cut Rd,Conley,30288,63.8,33.63987476000191,-84.33338848071868
680,Clayton County,East Clayton Elementary School,E,2750 Forest Pkwy,Ellenwood,30294,59.5,33.61192332848673,-84.29880043462018
681,Clayton County,Forest Park High School,H,5452 Phillips Dr,Forest Park,30297,61.6,33.605162931168934,-84.35535839311689
682,Clayton County,Jonesboro High School,H,7728 Mount Zion Blvd,Jonesboro,30236,68.3,33.54533513540544,-84.33768406378348
683,Clayton County,Lee Street Elementary School,E,178 Lee St,Jonesboro,30236,65.3,33.52421005,-84.35634116948972
684,Clayton County,Northcutt Elementary School,E,5451 W Fayetteville Rd,College Park,30349,52.9,33.60739957142857,-84.44640614285714
685,Clayton County,Tara Elementary School,E,937 Mount Zion Rd,Morrow,30260,64.7,33.572413530612245,-84.35994695918367
686,Clayton County,Arnold Elementary School,E,216 Stockbridge Rd,Jonesboro,30236,83.7,33.526152,-84.346726
687,Clayton County,North Clayton High School,H,1525 Norman Dr,College Park,30349,58.3,33.60809897634449,-84.43920846012728
688,Clayton County,Forest Park Middle School,M,930 Finley Dr,Forest Park,30297,64.5,33.6214206645944,-84.35976797510433
689,Clayton County,Morrow Elementary School,E,6115 Reynolds Rd,Morrow,30260,73.5,33.588577784403455,-84.34055215269542
690,Clayton County,Riverdale Elementary School,E,6253 Garden Walk Blvd,Riverdale,30274,65.0,33.58489555,-84.39281646581858
691,Clayton County,West Clayton Elementary School,E,5580 Riverdale Rd,College Park,30349,54.6,33.6152808,-84.438619
692,Clayton County,Fountain Elementary School,E,5215 West St,Forest Park,30297,70.3,33.61242149640584,-84.37234386829444
693,Clayton County,Babb Middle School,M,5500 Reynolds Rd,Forest Park,30297,68.4,33.60334445834302,-84.35350109731584
694,Clayton County,North Clayton Middle School,M,5517 W Fayetteville Rd,College Park,30349,65.0,33.60534414285714,-84.44632374489795
695,Clayton County,Haynie Elementary School,E,1169 Morrow Rd,Morrow,30260,74.9,33.587491,-84.353204
696,Clayton County,Riverdale Middle School,M,400 Roberts Dr,Riverdale,30274,63.1,33.5574179266669,-84.4009540271921
697,Clayton County,Church Street Elementary School,E,7013 Church St,Riverdale,30274,76.5,33.56368621076239,-84.41695179749286
698,Clayton County,Lake City Elementary School,E,5354 Phillips Dr,Lake City,30260,83.9,33.608839,-84.356636
699,Clayton County,Morrow High School,H,2299 Old Rex Morrow Rd,Morrow,30260,67.7,33.592646,-84.3170943
700,Clayton County,Suder Elementary School,E,1400 Lake Jodeco Rd,Jonesboro,30236,53.3,33.514312,-84.344788
701,Clayton County,Edmonds Elementary School,E,4495 Simpson Rd,Forest Park,30297,68.3,33.632069,-84.350381
702,Clayton County,Huie Elementary School,E,1260 Rockcut Rd,Forest Park,30297,60.2,33.638453,-84.349525
703,Clayton County,McGarrah Elementary School,E,2201 Lake Harbin Rd,Morrow,30260,76.5,33.5817773,-84.3182566
704,Cobb County,Belmont Hills Elementary School,E,605 Glendale Pl SE,Smyrna,30080,63.6,33.8908693,-84.5380777
705,Cobb County,Campbell High School,H,5265 Ward St SE,Smyrna,30080,76.1,33.8890741,-84.52509520153725
706,Cobb County,East Cobb Middle School,M,380 Holt Rd NE,Marietta,30068,67.1,33.9604214,-84.47679569105964
707,Cobb County,Garrett Middle School,M,5235 Austell Powder Springs Rd,Austell,30106,60.0,33.827658650000004,-84.6437724038494
708,Cobb County,McEachern High School,H,2400 New MacLand Rd,Powder Springs,30127,75.2,33.895962499999996,-84.67999994655256
709,Cobb County,Norton Park Elementary School,E,3041 Gray Rd SE,Smyrna,30082,64.0,33.879838827586205,-84.55136903448275
710,Cobb County,Powers Ferry Elementary School,E,403 Powers Ferry Rd SE,Marietta,30067,65.0,33.94323115,-84.4941303
711,Cobb County,Argyle Elementary School,E,2420 Spring Rd SE,Smyrna,30080,70.9,33.88322866666667,-84.48328216666667
712,Cobb County,North Cobb High School,H,"3400 Old 41 Highway, North",Kennesaw ,30144,79.8,33.9820124,-84.568701
713,Cobb County,King Springs Elementary School,E,1041 Reed Rd SE,Smyrna,30082,79.5,33.85445395,-84.5235270555759
714,Cobb County,Osborne High School,H,2451 Favor Rd SW,Marietta,30060,65.5,33.89528162068966,-84.56592979310345
715,Cobb County,Griffin Middle School,M,4010 King Springs Rd SE,Smyrna,30082,71.0,33.8562876,-84.52121353541921
716,Cobb County,Clay Elementary School,E,730 Boggs Rd SW,Mableton,30126,70.5,33.804203,-84.57533
717,Cobb County,South Cobb High School,H,1920 Clay Rd,Austell,30106,75.3,33.8353088,-84.60918099660879
718,Cobb County,Fair Oaks Elementary School,E,407 Barber Rd SE,Marietta,30060,56.4,33.91637304081633,-84.54233391836735
719,Cobb County,Harmony-Leland Elementary School,E,5891 Dodgen Rd SW,Mableton,30126,67.0,33.80983673469388,-84.55865991836734
720,Cobb County,LaBelle Elementary School,E,230 Cresson Dr SW,Marietta,30060,70.6,33.896470085933984,-84.55521958980722
721,Cobb County,Milford Elementary School,E,2390 Austell Rd SW,Marietta,30008,69.1,33.89618384375,-84.57546965625
722,Cobb County,Russell Elementary School,E,3920 S Hurt Rd SW,Smyrna,30082,72.3,33.858387577396684,-84.56809269166075
723,Cobb County,Compton Elementary School,E,3450 New MacLand Rd,Powder Springs,30127,64.3,33.8706365,-84.67842004038755
724,Cobb County,Awtrey Middle School,M,3601 Nowlin Rd NW,Kennesaw,30144,79.3,34.0440395,-84.64725245831589
725,Cobb County,Daniell Middle School,M,2900 Scott Rd,Marietta,30066,66.0,34.021431,-84.53118385645676
726,Cobb County,Pebblebrook High School,H,991 Old Alabama Rd SW,Mableton,30126,69.9,33.807609033816426,-84.58223720483089
727,Cobb County,Teasley Elementary School,E,3640 Spring Hill Rd SE,Smyrna,30080,71.2,33.86412348842604,-84.4869346965189
728,Cobb County,Hollydale Elementary School,E,2901 Bay Berry Dr SW,Marietta,30008,65.3,33.883369,-84.610789
729,Cobb County,Bells Ferry Elementary School,E,2600 Bells Ferry Rd,Marietta,30066,80.9,34.01458121875,-84.548302265625
730,Cobb County,Brumby Elementary School,E,1306 Powers Ferry Rd SE,Marietta,30067,63.0,33.920102545410295,-84.46739374913952
731,Cobb County,Due West Elementary School,E,3900 Due West Rd NW,Marietta,30064,90.5,33.9698719,-84.66719055205013
732,Cobb County,Floyd Middle School,M,4803 Floyd Rd SW,Mableton,30126,71.5,33.8385778,-84.57437824663286
733,Cobb County,Sedalia Park Elementary School,E,2230 Lower Roswell Rd,Marietta,30068,71.0,33.94607695,-84.48771862494716
734,Cobb County,Eastvalley Elementary School,E,2570 Lower Roswell Rd,Marietta,30068,73.9,33.9468544,-84.4614561
735,Coweta County,Ruth Hill Elementary School,E,57 Sunset Ln,Newnan,30263,72.1,33.37312239304275,-84.81750787101102
736,Coweta County,Evans Middle School,M,41 Evans Drive,Newnan,30263,80.5,33.389288608104714,-84.81621549686201
737,Coweta County,Atkinson Elementary School,E,14 Nimmons St,Newnan,30263,79.5,33.36697409293412,-84.80096976388886
739,Coweta County,Elm Street Elementary School,E,46 Elm St,Newnan,30263,81.8,33.383319400000005,-84.80753063545166
740,Coweta County,Moreland Elementary School,E,145 Railroad St,Moreland,30259,82.8,42.28563015,-71.15292036390491
741,Coweta County,Newnan High School,H,190 Lagrange St,Newnan,30263,82.6,33.36494928811697,-84.81144873269908
742,DeKalb County,DeKalb Academy of Technology and the Environment ,EM,1492 Kelton Dr,Stone Mountain,30083,71.4,33.82410607317073,-84.19887826829269
743,DeKalb County,DeKalb Elementary School of the Arts,EM,3131 Old Rockbridge Road,Avondale Estates,30002,77.4,33.780096989795915,-84.26122498979592
744,DeKalb County,Brockett Elementary School,E,1855 Brockett Rd,Tucker,30084,75.9,33.837203914254424,-84.22327028736865
745,DeKalb County,Columbia Elementary School,E,3230 Columbia Woods Dr,Decatur,30032,56.6,33.719299155025794,-84.25839965293432
746,DeKalb County,Dresden Elementary School,E,2449 Dresden Dr,Chamblee,30341,62.9,33.87005773490874,-84.29153104579225
747,DeKalb County,Evansdale Elementary School,E,2914 Evans Woods Dr,Doraville,30340,73.2,33.87267106592128,-84.2394754360426
748,DeKalb County,Ronald E. McNair Middle School,M,2190 Wallingford Dr,Decatur,30032,52.8,33.717461551020406,-84.29890393877551
749,DeKalb County,Idlewood Elementary School,E,1484 Idlewood Rd,Tucker,30084,55.7,33.827141850000004,-84.22209336314418
750,DeKalb County,Livsey Elementary School,E,4137 Livsey Rd,Tucker,30084,85.8,33.869091,-84.219966
751,DeKalb County,Tucker High School,H,5036 Lavista Rd,Tucker,30084,65.0,33.855583937585116,-84.21545566281551
752,DeKalb County,Woodward Elementary School,E,3034 Curtis Dr NE,Brookhaven,30319,65.1,33.84225037352271,-84.33811083052059
753,DeKalb County,International Student Center,M,3318 Midway Rd,Decatur,30032,31.9,33.754925715004646,-84.2550839613897
754,DeKalb County,Peachcrest Elementary School,E,1530 Joy Lane,Decatur,30032,56.9,33.7478834,-84.2457547
755,DeKalb County,John Robert Lewis Elementary School,E,2383 N Druid Hills Rd NE,Atlanta,30329,62.0,33.826765,-84.325985
756,DeKalb County,Barack H. Obama Elementary Magnet School of Technology,E,3132 Clifton Church Rd SE,Atlanta,30316,70.4,33.69421464247734,-84.30427983948199
757,DeKalb County,Columbia High School,H,2106 Columbia Dr,Decatur,30032,63.3,33.72883936608471,-84.25195034409052
758,DeKalb County,Druid Hills High School,H,1798 Haygood Dr NE,Atlanta,30307,72.0,33.79313855858206,-84.31673814265271
759,DeKalb County,Fernbank Elementary School,E,157 Heaton Park Dr,Atlanta,30307,69.5,33.78002923614995,-84.31650378080738
760,DeKalb County,Henderson Mill Elementary School,E,2408 Henderson Mill Rd NE,Atlanta,30345,85.7,33.85542721601535,-84.25890801666469
761,DeKalb County,Indian Creek Elementary School,E,724 N Indian Creek Dr,Clarkston,30021,61.0,33.79747491830925,-84.23683392974584
762,DeKalb County,McLendon Elementary School,E,3169 Hollywood Dr,Decatur,30033,80.9,33.804691,-84.262287
763,DeKalb County,Midvale Elementary School,E,3836 Midvale Rd,Tucker,30084,75.7,33.85619782399156,-84.23541806351099
764,DeKalb County,Cary Reynolds Elementary School,E,3498 Pine St,Doraville,30340,66.4,33.894224,-84.27083
765,DeKalb County,Briarlake Elementary School,E,3590 Lavista Rd,Decatur,30033,83.4,33.83897277329704,-84.26817809806191
766,DeKalb County,Canby Lane Elementary School,E,4150 Green Hawk Trl,Decatur,30035,61.4,33.720687573750844,-84.22090414239082
767,DeKalb County,Chestnut Charter Elementary School,E,4576 N Peachtree Rd,Dunwoody,30338,90.4,33.927677200000005,-84.2963934674892
768,DeKalb County,Dunaire Elementary School,E,651 S Indian Creek Dr,Stone Mountain,30083,64.3,33.779680426583916,-84.22729539329434
769,DeKalb County,Flat Shoals Elementary School,E,3226 Flat Shoals Rd,Decatur,30034,61.4,33.7058393572004,-84.2829010267734
771,DeKalb County,Hambrick Elementary School,E,1101 Hambrick Rd,Stone Mountain,30083,71.8,33.81266070122922,-84.20700039188955
772,DeKalb County,Jolly Elementary School,E,1070 Otello Ave,Clarkston,30021,55.0,33.81061957142857,-84.22506514285715
773,DeKalb County,Lakeside High School,H,3801 Briarcliff Rd NE,Atlanta,30345,74.9,33.845543,-84.285892
774,DeKalb County,Pleasantdale Elementary School,E,3695 Northlake Dr,Doraville,30340,81.6,33.891787542857145,-84.23752742857143
775,DeKalb County,Rock Chapel Elementary School,E,1130 Rock Chapel Rd,Lithonia,30058,53.6,33.760782,-84.081114
776,DeKalb County,Smoke Rise Elementary School,E,1991 Silver Hill Rd,Stone Mountain,30087,77.1,33.83794548750944,-84.15793243603308
777,DeKalb County,Toney Elementary School,E,2701 Oakland Ter,Decatur,30032,59.8,33.727775,-84.2783
778,DeKalb County,Ronald E. McNair High School,H,1804 Bouldercrest Rd SE,Atlanta,30316,62.2,33.7059274455013,-84.3270354067176
779,DeKalb County,Briar Vista Elementary School,E,1131 Briar Vista Ter NE,Atlanta,30324,76.0,33.81103351111111,-84.33787629999999
780,DeKalb County,Murphy Candler Elementary School,E,6775 S Goddard Rd,Lithonia,30038,51.7,33.651655206889735,-84.1280483458712
781,DeKalb County,Clarkston High School,H,618 N Indian Creek Dr,Clarkston,30021,67.4,33.794898819221686,-84.23642593295115
782,DeKalb County,Cross Keys High School,H,1626 N Druid Hills Rd NE,Atlanta,30319,66.6,33.84409095885345,-84.3392125881028
783,DeKalb County,Hightower Elementary School,E,4236 Tilly Mill Rd,Doraville,30360,61.7,33.91826703269895,-84.2801028034278
784,DeKalb County,Kelley Lake Elementary School,E,2590 Kelly Lake Rd,Decatur,30032,62.7,33.715438363439254,-84.28387449320277
785,DeKalb County,Montclair Elementary School,E,1680 Clairmont Pl NE,Atlanta,30329,65.0,33.847079642857146,-84.32022016326532
786,DeKalb County,Oakcliff Elementary School,E,3151 Willow Oak Way,Doraville,30340,76.8,33.9034989,-84.2579752
787,DeKalb County,Rainbow Elementary School,E,2801 Kelley Chapel Rd,Decatur,30034,65.9,33.704196566438696,-84.2241747836943
788,DeKalb County,Rowland Elementary School,E,1317 S Indian Creek Dr,Stone Mountain,30083,58.2,33.75836068513409,-84.22187152726025
789,DeKalb County,Snapfinger Elementary School,E,1365 Snapfinger Rd,Decatur,30032,42.5,33.732719259430404,-84.24791875304972
790,DeKalb County,Stoneview Elementary School,E,2629 Huber St,Lithonia,30058,46.3,33.708731683181895,-84.11820011087595
791,DeKalb County,Towers High School,H,3919 Brookcrest Cir,Decatur,30032,58.8,33.74628257142857,-84.23666285714285
792,DeKalb County,Avondale Elementary School,E,8 Lakeshore Dr,Avondale Estates,30002,67.0,33.77367049620859,-84.2624142531378
793,DeKalb County,Chamblee Charter High School,H,3688 Chamblee Dunwoody Rd,Chamblee,30341,79.4,33.89884193062011,-84.30530181825443
794,DeKalb County,Dunwoody High School,H,5035 Vermack Rd,Dunwoody,30338,81.5,33.9455247,-84.3155710437864
795,DeKalb County,Huntley Hills Elementary and Montessori School,E,2112 Seaman Cir,Chamblee,30341,74.9,33.91151433688854,-84.30166462193313
796,DeKalb County,Kingsley Elementary School,E,2051 Brendon Dr,Dunwoody,30338,76.1,33.94734618850936,-84.29712600900385
797,DeKalb County,Montgomery Elementary School,E,3995 Ashford Dunwoody Rd NE,Atlanta,30319,81.6,33.909924613383716,-84.33272128068823
798,DeKalb County,Sagamore Hills Elementary School,E,1865 Alderbrook Rd NE,Atlanta,30345,78.1,33.83239,-84.30447338461539
799,DeKalb County,Southwest DeKalb High School,H,2863 Kelley Chapel Rd,Decatur,30034,75.4,33.7023035,-84.2246643
800,Douglas County,Beulah Elementary School,E,1150 Burnt Hickory Road,Douglasville,30134,80.5,33.775208,-84.704366
801,Douglas County,Turner Middle School,M,7101 Turner Dr,Lithia Springs,30122,76.5,33.7832495,-84.6593872
802,Douglas County,Lithia Springs Elementary School,E,6946 Florence Dr,Lithia Springs,30122,80.2,33.7869277347919,-84.66035362009976
803,Douglas County,Douglas County High School,H,8705 Campbellton St,Douglasville,30134,73.3,33.743578,-84.742466
804,Douglas County,Stewart Middle School,M,8138 Malone St,Douglasville,30134,70.4,33.757380612454334,-84.7473410966545
805,Douglas County,Annette Winn Elementary School,E,3536 Bankhead Highway,Lithia Springs,30122,76.8,33.79707631058723,-84.65584218142008
806,Forsyth County,Forsyth Central High School,H,520 Tribble Gap Rd,Cumming,30040,81.9,34.21775705473962,-84.13896188793139
807,Fulton County,Cliftondale Elementary School,E,3340 W Stubbs Rd,College Park,30349,57.9,33.65852937390903,-84.61825515281946
808,Fulton County,Alpharetta Elementary School,E,192 Mayfield Rd,Alpharetta,30009,87.7,34.081211,-84.296009
809,Fulton County,Roswell North Elementary School,E,10525 Woodstock Rd,Roswell,30075,81.9,34.0375994,-84.3682596
810,Fulton County,Langston Hughes High School,H,7501 Hall Rd,Fairburn,30213,66.2,33.62130228822694,-84.63400726657446
811,Fulton County,Birmingham Falls Elementary School,E,14865 Birmingham Hwy,Milton,30004,88.9,34.1674563,-84.3327459
812,Fulton County,Rise Grammar School,E,2626 Hogan Road,East Point,30344,56.2,33.67792225,-84.475127375
813,Fulton County,Rise Prep School,M,2626 Hogan Road,East Point,30344,61.4,33.67792225,-84.475127375
814,Fulton County,College Park Elementary,E,2075 Princeton Avenue,College Park,30337,50.7,33.65469153061225,-84.45661673469388
815,Fulton County,Wolf Creek Elementary School,E,4440 Derrick Road SW,College Park,30349,74.8,33.63526053596061,-84.58751713472533
816,Fulton County,Fulton Academy of Science and Technology,EM,11365 Crabapple Road,Roswell,30075,89.9,34.05672885,-84.35978276480924
817,Fulton County,Skyview High School,H,5134 Old National Hwy,College Park,30349,39.6,33.61535735,-84.47045499728559
818,Fulton County,Mary M. Bethune Elementary School,E,5925 Old Carriage Dr,College Park,30349,57.4,33.596736,-84.480147
819,Fulton County,Campbell Elementary School,E,91 Elder St,Fairburn,30213,66.4,33.5723615,-84.57477955
820,Fulton County,Heards Ferry Elementary School,E,6151 Powers Ferry Rd NW,Sandy Springs,30339,85.3,33.9104405,-84.42602833544679
821,Fulton County,Parklane Elementary School,E,2809 Blount St,East Point,30344,48.9,33.6784419,-84.4249275
822,Fulton County,Riverwood International Charter School,H,5900 Raider Drive NW,Sandy Springs,30328,79.0,33.917523349999996,-84.41782255557357
823,Fulton County,High Point Elementary School,E,520 Greenland Rd NE,Sandy Springs,30342,72.4,33.89968650802139,-84.37383890374332
824,Fulton County,Mimosa Elementary School,E,1550 Warsaw Rd,Roswell,30076,73.3,34.0370053,-84.3307276
825,Fulton County,North Springs Charter High School,H,7447 Roswell Rd,Sandy Springs,30328,82.8,33.957181950000006,-84.3618803155342
826,Fulton County,Conley Hills Elementary School,E,2850 DeLowe Dr,East Point,30344,66.7,33.677613,-84.457536
827,Fulton County,Asa Hilliard Elementary School,E,3353 Mount Olive Road,East Point,30344,67.2,33.6645429,-84.4783288
828,Fulton County,Westlake High School,H,2400 Union Rd SW,Atlanta,30331,79.7,33.6921124,-84.5809373
829,Gwinnett County,Alcova Elementary School,E,770 Ewing Chapel Rd,Dacula,30019,78.2,33.968011030969734,-83.90016725111037
830,Gwinnett County,Bay Creek Middle School,M,821 Cooper Rd,Grayson,30017,87.1,33.871548177681966,-83.95949012711247
831,Gwinnett County,Jenkins Elementary School,E,12 Village Way,Lawrenceville,30046,71.1,33.963218352148765,-83.96502778184392
832,Gwinnett County,Anderson-Livsey Elementary School,E,4521 Centerville Hwy,Snellville,30039,73.5,33.8563981,-84.0209043
833,Gwinnett County,Lanier High School,H,918 Buford Hwy,Sugar Hill,30518,80.7,34.085901050000004,-84.03224802953835
834,Gwinnett County,New Life Academy of Excellence,EM,4725 River Green Pkwy,Duluth,30096,78.5,34.021157859182324,-84.16837296943875
835,Gwinnett County,Berkmar High School,H,405 Pleasant Hill Rd NW,Lilburn,30047,65.4,42.17503656668424,-75.79916486776584
836,Gwinnett County,Lilburn Middle School,M,4994 Lawrenceville Hwy NW,Lilburn,30047,76.8,33.88944185139768,-84.14464798974898
837,Gwinnett County,Alford Elementary School,E,2625 Lawrenceville Hwy,Lawrenceville,30044,80.1,33.9381943,-84.0261107
838,Gwinnett County,Moore Middle School,M,1221 Lawrenceville Hwy,Lawrenceville,30046,70.8,33.93829190684562,-84.02064572353257
839,Gwinnett County,GIVE Center West,MH,5550 Peachtree Industrial Blvd,Norcross,30071,44.4,34.0199406,-84.1607827
840,Gwinnett County,Couch Middle School,M,1777 Grayson Hwy,Grayson,30017,84.9,33.9007033,-83.9669932
841,Gwinnett County,Gwinnett Online Campus School,EMH,713 Hi Hope Rd,Lawrenceville,30043,78.3,33.99003714488332,-83.97302950967192
842,Gwinnett County,Margaret Winn Holt Elementary School,E,588 Old Snellville Hwy,Lawrenceville,30046,76.4,33.92648374269491,-84.00139346452893
843,Gwinnett County,Mountain View High School,H,2351 Sunny Hill Rd,Lawrenceville,30043,80.5,34.05360833455522,-83.95550521514073
844,Gwinnett County,Radloff Middle School,M,3939 Shackleford Rd,Duluth,30096,73.3,33.943341203805495,-84.1419905595352
845,Gwinnett County,Chesney Elementary School,E,3878 Old Norcross Rd,Duluth,30096,80.4,33.960314251633285,-84.14750934400928
846,Gwinnett County,Archer High School,H,2255 New Hope Rd,Lawrenceville,30045,86.9,33.916273,-83.8933422
847,Gwinnett County,Woodward Mill Elementary School,E,2020 Buford Dr,Lawrenceville,30043,90.5,34.012084,-83.989235
848,Gwinnett County,Baggett Elementary School,E,2136 Old Norcross Road,Lawrenceville,30044,66.6,33.951843600648296,-84.0688598031775
849,Gwinnett County,Graves Elementary School,E,1700 Graves Road,Norcross,30093,81.3,33.90587,-84.22515
850,Gwinnett County,Jordan Middle School,M,8 Village Way,Lawrenceville,30046,66.6,33.963291125939556,-83.96506311502701
851,Gwinnett County,Discovery High School,H,1335 Old Norcross Road,Lawrenceville,30046,69.2,33.954266,-84.034438
852,Gwinnett County,Coleman Middle School,M,3057 Main Street,Duluth,30096,93.4,34.0024135,-84.1455012
853,Gwinnett County,Grayson Elementary School,E,460 Grayson Pkwy,Grayson,30017,91.9,33.89315214285714,-83.95781785714286
854,Gwinnett County,Snellville Middle School,M,3155 Pate Rd,Snellville,30078,80.3,33.83456530543537,-84.00150913037882
855,Gwinnett County,Britt Elementary School,E,2503 Skyland Dr,Snellville,30078,72.2,33.831988,-83.98641
856,Gwinnett County,Central Gwinnett High School,H,564 W. Crogan St,Lawrenceville,30046,70.8,33.9499516,-84.00072946666667
857,Gwinnett County,Dacula High School,H,123 Broad St,Dacula,30019,82.1,33.990485,-83.898017
858,Gwinnett County,Norcross Elementary School,E,150 Hunt St,Norcross,30071,78.9,39.519651,-76.6367993
859,Gwinnett County,Suwanee Elementary School,E,3875 Smithtown Rd,Suwanee,30024,89.6,34.04837844296597,-84.05393412959978
860,Gwinnett County,Lilburn Elementary School,E,531 Lilburn School Rd NW,Lilburn,30047,73.1,33.893176,-84.153062
861,Henry County,Hampton Elementary Charter School,E,10 Central Ave,Hampton,30228,63.4,33.390165,-84.286438
862,Henry County,Smith-Barnes Elementary School,E,147 Tye St,Stockbridge,30281,57.0,33.536929313464825,-84.23552484122045
863,Henry County,Stockbridge Elementary School,E,4617 N Henry Blvd,Stockbridge,30281,39.8,33.544005078085576,-84.22988192520782
864,Henry County,Stockbridge Middle School,M,533 Old Conyers Rd,Stockbridge,30281,49.7,33.55717855102041,-84.21946124489796
865,Newton County,East Newton Elementary School,E,2286 Dixie Rd,Covington,30014,79.4,33.543569437511024,-83.79468201309936
866,Newton County,Livingston Elementary School,E,3657 Highway 81 S,Covington,30016,65.9,33.5384006229703,-83.95145818851485
867,Newton County,Porterdale Elementary School,E,45 Ram Dr,Covington,30014,56.0,33.580560172636176,-83.90563352769783
868,Paulding County,Dallas Elementary School,E,520 Hardee St,Dallas,30132,58.7,33.915326,-84.831615
869,Paulding County,New Georgia Elementary School,E,5800 Mulberry Rock Rd,Villa Rica,30180,66.5,33.81206709731544,-84.8957092181208
870,Paulding County,Herschel Jones Middle School,M,100 Stadium Dr,Dallas,30132,70.2,33.927015,-84.846108
871,Paulding County,Paulding County High School,H,1297 Villa Rica Hwy,Dallas,30157,70.1,33.893233303513846,-84.83554563101674
872,Paulding County,Hiram Elementary School,E,200 Seaboard Ave,Hiram,30141,63.3,33.879347,-84.754715
873,Rockdale County,Pine Street Elementary School,E,960 Pine St NE,Conyers,30012,75.1,33.66818361538462,-84.01554392307692
874,Griffin-Spalding County,Anne Street Elementary School,E,802 Anne St,Griffin,30224,41.1,33.238691,-84.277862
875,Griffin-Spalding County,Jackson Road Elementary School,E,1233 Jackson Rd,Griffin,30223,75.5,33.25474704040404,-84.24019209090909
876,Griffin-Spalding County,Beaverbrook Elementary School,E,251 Birdie Rd,Griffin,30223,53.0,33.31940265714286,-84.29056748571429
877,Griffin-Spalding County,Crescent Road Elementary School,E,201 Crescent Rd,Griffin,30224,61.6,33.231414031819945,-84.26179682072105
878,Griffin-Spalding County,Moore Elementary School,E,201 Cabin Creek Dr,Griffin,30223,50.2,33.257203000000004,-84.26112499999999
879,Griffin-Spalding County,Orrs Elementary School,E,1553 Flynt St,Griffin,30223,51.7,33.25019657142857,-84.29369457142857
880,Atlanta Public Schools,Boyd Elementary School,E,2250 Perry Blvd. NW,Atlanta,30318,64.4,33.8034389,-84.4602075
881,Atlanta Public Schools,Emma Hutchinson Elementary School,E,650 Cleveland Ave SW,Atlanta,30315,60.7,33.6804293,-84.409542955103
882,Atlanta Public Schools,Kimberly Elementary School,E,1090 Windsor St. SW,Atlanta,30310,63.0,33.725551,-84.398318
883,Atlanta Public Schools,Rivers Elementary School,E,8 Peachtree Battle Ave NW,Atlanta,30305,76.5,33.8195395,-84.39017633454925
884,Atlanta Public Schools,George A. Towns Elementary Schools,E,760 Bolton Rd NW,Atlanta,30331,54.7,33.77643715,-84.50387838974228
885,Atlanta Public Schools,Wesley International Academy,EM,211 Memorial Dr SE,Atlanta,30312,84.9,33.74639365,-84.3810236495428
886,Atlanta Public Schools,Daniel McLaughlin Therrell High School,H,3099 Panther Trail SW,Atlanta,30311,61.6,33.699190200000004,-84.4900959981126
887,Atlanta Public Schools,Corretta Scott King Young Womens' Leadership Academy ,MH,1190 Northwest Drive NW,Atlanta,30318,66.7,33.7886769,-84.47933855519693
888,Atlanta Public Schools,South Atlanta High School,H,800 Hutchens Rd SE,Atlanta,30354,66.2,33.6713879,-84.36343474991857
889,Atlanta Public Schools,G.W. Carver High School,H,55 McDonough Blvd SE,Atlanta,30315,40.5,33.7199236,-84.3861775
890,Atlanta Public Schools,Hollis Innovation Academy,EM,225 James P Brawley Dr NW,Atlanta,30314,62.3,33.76089733003031,-84.41254274362603
891,Atlanta Public Schools,Woodson Park Academy,E,20 Evelyn Way NW,Atlanta,30318,58.6,33.7719138,-84.44404838304438
892,Atlanta Public Schools,Tuskegee Airmen Global Academy,E,1654 S Alvarado Terrace SW,Atlanta,30311,65.1,33.731002849999996,-84.44177154992747
893,Atlanta Public Schools,The Kindezi School At Old Fourth Ward,EM,386 Pine Street NE,Atlanta,30308,70.3,33.76776740409436,-84.37451061711859
894,Atlanta Public Schools,John Lewis Invictus Academy,M,1890 Donald Lee Hollowell Pkwy NW,Atlanta,30318,53.7,33.77519360888431,-84.44768204890215
895,Atlanta Public Schools,Garden Hills Elementary School,E,285 Sheridan Dr NE,Atlanta,30305,72.0,33.8317808,-84.378746
896,Atlanta Public Schools,Samuel M. Inman Middle School,M,774 Virginia Ave NE,Atlanta,30306,89.0,33.781915125,-84.36225925
897,Atlanta Public Schools,Sarah Smith Elementary School,E,370 Old Ivy Rd NE,Atlanta,30342,89.7,33.85832675,-84.37531795224857
898,Atlanta Public Schools,Hope-Hill Elementary School,E,112 Boulevard NE,Atlanta,30312,79.9,33.757537,-84.372209
899,Atlanta Public Schools,Gideons Elementary School,E,897 Welch St SW,Atlanta,30310,55.0,33.7306468,-84.4054508
900,Atlanta Public Schools,West Manor Elementary School,E,570 Lynhurst Dr SW,Atlanta,30311,69.7,33.7398296,-84.4896528
901,Atlanta Public Schools,Alonzo A. Crim Open Campus High School,H,256 Clifton St SE,Atlanta,30317,29.2,33.74657355196568,-84.33174321355287
902,Atlanta Public Schools,Continental Colony Elementary School,E,3181 Hogan Rd SW,Atlanta,30331,63.6,33.678794800000006,-84.49161552535547
903,Atlanta Public Schools,Fain Elementary School,E,101 Hemphill School Rd NW,Atlanta,30331,52.6,33.759046,-84.500601
904,Atlanta Public Schools,Peyton Forest Elementary School,E,301 Peyton Rd SW,Atlanta,30311,70.5,33.7478337,-84.4764599
905,Atlanta Public Schools,Sutton Middle School,M,2875 Northside Dr NW,Atlanta,30305,82.8,33.832556,-84.40691756825424
906,Atlanta Public Schools,Fickett Elementary School,E,3935 Rux Rd SW,Atlanta,30331,72.8,33.6965902,-84.5159746
907,Atlanta Public Schools,Scott Elementary School,E,1752 Hollywood Rd NW,Atlanta,30318,55.0,33.8029512,-84.4703966
908,Atlanta Public Schools,Cleveland Avenue Elementary School,E,2672 Old Hapeville Rd SW,Atlanta,30315,65.5,33.68281605,-84.39216701116834
909,Atlanta Public Schools,Frederick Douglass High School ,H,225 Hamilton E Holmes Dr NW,Atlanta,30318,48.7,33.766561,-84.470118
910,Atlanta Public Schools,M. Agnes Jones Elementary School,E,1040 Fair St SW,Atlanta,30314,54.2,33.748415699999995,-84.42206507587375
911,Atlanta Public Schools,Slater Elementary School,E,1320 Pryor Rd SW,Atlanta,30315,52.7,33.71919369387755,-84.39330222448979
912,Atlanta Public Schools,Henry W. Grady High School ,H,929 Charles Allen Dr NE,Atlanta,30309,81.7,33.7810927,-84.37213944591403
913,Atlanta Public Schools,Frederick Wilson Benteen Elementary School,E,200 Cassanova St SE,Atlanta,30315,64.5,33.7164688,-84.36439157865456
914,Atlanta Public Schools,D. H. Stanton Elementary School,E,970 Martin St SE,Atlanta,30315,71.4,33.7281626,-84.3829821
915,Atlanta Public Schools,Thomasville Heights Elementary School,E,1820 Henry Thomas Dr SE,Atlanta,30315,43.0,33.7037423,-84.3559268
916,Atlanta Public Schools,Dunbar Elementary School,E,500 Whitehall Terrace SW,Atlanta,30312,58.4,33.739427,-84.401288
917,Atlanta Public Schools,Humphries Elementary School,E,3029 Humphries Dr SE,Atlanta,30354,56.0,33.67204955,-84.37635318230872
918,Atlanta Public Schools,Frank Lebby Stanton Elementary School,E,1625 Martin Luther King Jr Dr SW,Atlanta,30314,70.9,33.7533919,-84.43868034708501
919,Atlanta Public Schools,Fred A. Toomer Elementary School,E,65 Rogers St NE,Atlanta,30317,51.9,33.755395347222226,-84.3292941736111
920,Carrollton City,Carrollton High School,H,202 Trojan Dr,Carrollton,30117,83.7,33.567139000457836,-85.07985528316347
921,Cartersville City,Cartersville High School,H,320 E Church St,Cartersville,30120,81.0,34.1693188,-84.79068103048238
922,City Schools of Decatur,Renfroe Middle School,M,220 W College Ave,Decatur,30030,82.5,33.76869918367347,-84.29912136734694
923,City Schools of Decatur,Decatur High School,H,310 N McDonough St,Decatur,30030,89.7,33.7708581,-84.2971102236331
924,Marietta City,Park Street Elementary School,E,105 Park St SE,Marietta,30060,56.1,33.949426686868684,-84.53307458585859
925,Marietta City,Hickory Hills Elementary School,E,500 Redwood Dr SW,Marietta,30064,61.0,33.93885173154363,-84.56491438926174
926,State Charter School,Odyssey School,EM,14 Saint John Cir,Newnan,30265,75.0,33.404727375,-84.751312125
927,State Charter School,Utopian Academy for the Arts Charter School,M,6630 Camp St,Riverdale,30274,81.7,33.57271436734694,-84.40843918367347
928,State Charter School,Cherokee Charter Academy,EM,2126 Sixes Rd,Canton,30114,72.2,34.158463532998326,-84.5302063925034
929,State Charter School,"Ivy Preparatory Academy, Inc",EM,1807 Memorial Dr SE,Atlanta,30317,67.4,33.747333000000005,-84.32825283333334
930,State Charter School,Du Bois Integrity Academy,E,6504 Church Street,Riverdale,30274,72.8,33.5729453,-84.4154333
931,State Charter School,Ivy Preparatory Academy at Gwinnett,M,3705 Engineering Dr,Norcross,30092,64.7,33.96918388497374,-84.22900598406159
932,State Charter School,Fulton Leadership Academy,MH,1706 Washington Ave,East Point,30344,64.7,33.675473733333334,-84.444443
933,State Charter School,Atlanta Heights Charter School,EM,3670 Martin Luther King Jr Dr SW,Atlanta,30331,62.4,33.76214272464636,-84.50834170551978
934,State Charter School,Brookhaven Innovation Academy,EM,3159 Campus Dr,Norcross ,30071,75.3,33.955666124079656,-84.21616956836225
935,State Charter School,Liberty Tech Charter School,EM,119 Price Road,Brooks,30205,66.9,33.28960089823622,-84.46794517742364
936,State Charter School,Genesis Innovation Academy for Boys,EM,1049 Custer Ave SE,Atlanta,30316,58.1,33.71622824795079,-84.3549269727654
937,State Charter School,Genesis Innovation Academy for Girls,EM,1049 Custer Ave SE,Atlanta,30316,50.5,33.71622824795079,-84.3549269727654
938,State Charter School,Resurgence Hall Charter School,EM,1743 Hardin Avenue,College Park,30337,80.7,33.66050631707317,-84.445483
939,State Charter School,International Academy of Smyrna,EM,2144 South Cobb Dr.,Smyrna,30080,71.9,33.9366255,-84.5364771
940,State Schools- Atlanta Area School for the Deaf,Atlanta Area School for the Deaf,EMH,890 N Indian Creek Dr,Clarkston,30021,34.8,33.803441481170836,-84.23886507670287
